english_name,arabic_name,latitude,longitude,found_name,address
القاهرة,Cairo,30.0632299,31.2469369,Cairo,"Ramsis Square, Al Fagalah, Al Azbakeya, Cairo Governorate 4321102, Egypt"
سيدي جابر,Sidi Gaber,31.2189328,29.9424796,Sidi Gaber Railway Station,"Abou Quer, Sidi Gabir, Sidi Gaber, Alexandria Governorate 5433011, Egypt"
الاسكندرية,Alexandria,31.1935097,29.9064885,Alexandria,"Kom Ad Dakah Gharb, Al Attarin, Alexandria Governorate 5370052, Egypt"
طنطا,Tanta,30.7817567,30.9948188,محطه قطار طنطا,"محطه قطار, Tanta Qism 2, First Tanta, Gharbia Governorate 6623101, Egypt"
مرسى مطروح,Marsa Matruh,31.3487992,27.2443437,Marsa Matrouh Train Station,"Abd Al Atay Wahmah, Mersa Matruh, Marsa Matrouh Governorate 5056504, Egypt"
سملا,Samla,31.2937154,27.3326693,Mahto train Simla,"Mersa Matruh, Marsa Matrouh Governorate 5056822, Egypt"
راس الحكمة,Ras Hekmah,31.1315364,27.8338259,محطه قطار راس الحكمة,"4RJM+HGM، أبو حجاج، قسم مرسى مطروح،, Marsa Matrouh Governorate, Egypt"
فوكة,Fokah,31.0674821,27.9185081,محطة قطار فوكه,"Unnamed Road, قسم الضبعة، مطروح،, Egypt"
جلال,Galal,31.0356388,28.1812582,محطة قطار جلال,"25PJ+7F5، 25PJ+7G2، 25PJ+FC7،،، قسم الضبعة،،،، Marsa Matrouh Governorate 5002531،, Egypt"
الضبعة,Dabaa,31.0277678,28.4439331,محطة قطار الضبعة,"2CHV+4H3، Unnamed Road, قسم الضبعة، مطروح،, Ghazal, Egypt"
سيدي عبد الرحمن,Sidi Abd Rahman,30.9693229,28.7227197,Train Station Sidi Abdel Rahman,"XP9F+P3H, El Alamein, Marsa Matrouh Governorate 5062150, Egypt"
العلمين,Alamein,30.9693229,28.7227197,Train Station Sidi Abdel Rahman,"XP9F+P3H, El Alamein, Marsa Matrouh Governorate 5062150, Egypt"
العميد,Ameed,30.7896727,29.1944883,محطة قطار ساحل العميد,"Q5QV+VQ9، Q5QV+GM5،، مركز الحمام،, Marsa Matrouh Governorate 5070163،, Egypt"
الرويسات,Rowaysat,30.7606667,29.18159,محطة الرويسات,"Q56J+7J8، الرريسات, El Hamam, Marsa Matrouh Governorate 5070142, Egypt"
الحمام,Hammam,30.8394078,29.3893932,محطة قطار مدينة الحمام,"R9QQ+QQ2, Al Mahata, El Hamam, Marsa Matrouh Governorate 5075113, Egypt"
برج العرب ق,Burj Arab O,30.8557724,29.54191449999999,Borg Al Arab - Alexandria Railway Station,"Hod Sakrah WA Abu Hamad, New Borg El Arab, Alexandria Governorate 5220601, Egypt"
مطار برج العرب,Burj Arab Airport,30.9608283,29.6763621,محطة قطار مطار برج العرب - الهوارية,"XM6G+8GX برج العرب الجديدة, Bahig, Second Al Amreya, Alexandria Governorate 5244502, Egypt"
العامرية,Amreyah,31.0183325,29.7981673,Amiriya Train Station,"2Q9X+87M, Al Amrereyah Gharb, Amreya 1, Alexandria Governorate 5254501, Egypt"
محرم بك,Moharam Beek,31.1859142,29.9259475,"Moharam Bek, train station","5WPG+998, شياخة عزبة شرركس وعزبة رأفت والصبحية،, As Sabheyah WA Izbat Sharkas WA Izbat Raafat, Moharam Bek, Alexandria Governorate, Egypt"
دمنهور,Damanhour,31.0343867,30.4683887,محطة قطار دمنهور,"Platform 1 & 1A، النصر, Haret Umm Shweisha, Shobra, Damanhour, Beheira Governorate, Egypt"
ايتاي البارود,Itay Barud,30.8842193,30.6618095,محطة سكك حديد إيتاي البارود,"VMM6+MPM, Atay Al Baroud, Itay El Barud, Beheira Governorate 5775001, Egypt"
كفر الزيات,Kafr Zayat,30.8192858,30.8140668,محطه قطار كفر الزيات,"RR97+PJ8، Kafr El-Zaiat، الدلجمون، كفر الزيات،, Egypt"
بركة السبع,Berket Saba,30.6368268,31.0793037,Berket Al Sabaa Train station,"J3PH+PPM, Madinet Berkat as Sabee, Birket el Sab, Menofia Governorate 6160653, Egypt"
قويسنا,Quesna,30.5478994,31.1396195,محطة قطار قويسنا,"Madinet Qewaisna, Qewaisna, Menofia Governorate 6142963, Egypt"
بنها,Banha,30.4558513,31.1806955,Benha railway station,"Qism Banha, Banha, Al-Qalyubia Governorate 6460301, Egypt"
شبرا الخيمة,Shobra Khemah,30.1224317,31.2445379,Shubra El-Kheima,"Begam, Shubra El Kheima 2, Al-Qalyubia Governorate 6210316, Egypt"
الجيزة,Giza,30.0092238,31.2079466,El Giza Station,"2655+M5R, Al Omraneyah Ash Sharqeyah, El Omraniya, Giza Governorate 3724110, Egypt"
بني سويف,Beni Suef,29.0760503,31.094774,Beni Suef,"Qism Bani Sweif, Beni Suef, Beni Suef Governorate 2720482, Egypt"
مغاغة,Maghagha,28.6494067,30.8385785,محطة قطارات مغاغه,"Madinet Maghaghah, Maghagha, Minya Governorate 2547501, Egypt"
المنيا,Minya,28.0968517,30.7540305,Minya Railway Station,"ميدان المحطة، المحطة, Minya, Minya Governorate 2451101, Egypt"
ملوي,Mallawi,27.7330074,30.8499698,محطة قطار ملوي,"PRMX+6X5, AR Rayramoun, Mallawi, Minya Governorate 2344101, Egypt"
اسيوط,Asyut,27.180062,31.1881995,Assiut Railway Station,"El-Helaly, Al Hamraa Ath Thaneyah, Asyut 1, Assiut Governorate 2073066, Egypt"
سوهاج,Sohag,26.5512725,31.69893759999999,Sohag Railways Station,"HM2X+GHH, شارع والورشة, El-Khouly, Sohag 1, Egypt"
نجع حمادي,Nagaa Hammadi,26.0435342,32.2409302,Nag Hammadi,"Madinet Najaa Hammadi, Nag Hammadi, Qena Governorate 1554010, Egypt"
قنا,Qena,26.1622143,32.7272833,Qena Railway Station,"Al Mahatta, قسم قنا، Qena, Qena Governorate 1461122, Egypt"
الاقصر,Luxor,25.6965585,32.644726,Luxor Railway Station,"Luxor City, Luxor, Luxor Governorate 1362367, Egypt"
ادفو,Edfu,24.978548,32.8758199,Edfu,"Adfo, Edfo, Aswan Governorate 1291266, Egypt"
كوم امبو,Kom Ombo,24.4768122,32.9472276,Kom Ombo Railway Station,"كوم امبو، كوم أمبو، مركز كوم أمبو، اسوان, Aswan Governorate, Egypt"
كفر الدوار,Kafr Dawar,31.132576,30.1302577,محطة قطار كفر الدوار,"44MJ+24J, Real Way, Monshaat Al Awqaf, Kafr El Dawwar, Beheira Governorate 5912103, Egypt"
ابو حمص,Abo Homos,31.0849053,30.3098234,Abu Hommos station,"38M5+XW8، الجرن، مركز أبو حمص،, Markaz Abu Humus, Beheira Governorate, Egypt"
التوفيقية,Tawfiqiah,30.8161827,30.7480033,محطة قطار التوفيقية,"RP8X+F6C، ميت حبيش البحرية، طنطا، الغربية،، زبيدة، مركز إيتاى البارود، البحيرة،, Itay El Barud, Egypt"
ابو مشهور,Abo Mashhour,31.0849053,30.3098234,Abu Hommos station,"38M5+XW8، الجرن، مركز أبو حمص،, Markaz Abu Humus, Beheira Governorate, Egypt"
عرب الرمل,Arab Raml,31.2013546,29.9010136,El Raml Station,"Al Mesallah Sharq, Al Attarin, Alexandria Governorate 5372045, Egypt"
سندنهور,Sandanhour,30.4120702,31.1880022,Sandanhour station,"Sandanhour, Banha, Al-Qalyubia Governorate 6480151, Egypt"
طوخ,Toukh,30.3514951,31.1979016,Toukh station,"952X+H5R، مدينة طوخ, Toukh, Al-Qalyubia Governorate 6440410, Egypt"
قها,Qaha,30.2850875,31.2083921,Qaha Train Station,"76P5+29J، شارع بور سعيد، مدينة قها، مركز طوخ، القليوبية،، مدينة قها، قها، القليوبية،, Qaha, Egypt"
قليوب,Qalyoub,30.1808438,31.2253734,محطة قطار قليوب المحطة,"Qalyub, مدينة قليوب، قليوب، القليوبية،, Qalyub, Egypt"
ديروط,Dayrout,27.5596296,30.8128271,محطة ديروط,"HR57+V44، ديروط الشريف، مركز ديروط،, Dairut, Assiut Governorate, Egypt"
ابو تيج,Abo Tij,27.0444795,31.31449839999999,Abou Tig Railway Station,"28V7+QQX، محمد باشا محمود، ASSYOUT, Abu Tig, Assiut Governorate 2043001, Egypt"
طما,Tima,26.9053005,31.4317993,محطه قطار طما,"WC4J+4PF، اسيوط - سوهاج الصحراوى الغربى، سلامون، مركز طما، سوهاج،, Tima, Egypt"
طهطا,Tahta,26.7681664,31.5055968,Tahta Railway Station,"QG94+77C، عرب بخواج، مركز طهطا،, Tahta, Sohag Governorate, Egypt"
المراغة,Maragha,26.6961326,31.6026414,محطة المراغة,"MJW3+F32، المراغة، مركز المراغة،, El Maragha, Sohag Governorate, Egypt"
جرجا,Girga,26.3374136,31.8888655,Gerga Station,"8VPQ+XG9, Gerga, Sohag Governorate 1632201, Egypt"
البلينا,Balyana,26.2347296,31.9971666,محطة البلينا,"6XMW+VVV، شارع المحطة, Al Balena, El Balyana, Sohag Governorate 1616022, Egypt"
فرشوط,Farshut,26.0581775,32.1655924,محطة قطار فرشوط,"3558+76G, Al Asirat, Farshut, Qena Governorate 1572802, Egypt"
دشنا,Dishna,26.123184,32.4618088,محطة سكة حديد مصر بدشنا,"4FF6+7PF، المحطة، مدينة دشنا، دشنا،, Dishna, Qena Governorate, Egypt"
قوص,Qus,25.9154235,32.7584331,محطة قوص,"WQ85+HVG, Madinet Qaws, Qus, Qena Governorate 1431401, Egypt"
ارمنت,Armant,25.5817581,32.5061658,محطة أرمنت,"HGJ4+PF3, Cairo - Aswan Eastern Desert Rd, Al Odeisat, Luxor, Luxor Governorate 1352112, Egypt"
اسنا,Esna,25.3099697,32.5706004,Esna Railway Station,"8H5C+X6Q، الدير، إسنا،, Esna, Luxor Governorate, Egypt"
السباعية,Sibaiyyah,25.1991477,32.7008426,محطة سكة حديد السباعيه,"5PX2+M8H، قنا - إدفو، الشراونة، مركز إدفو، أسوان،, Edfo, Egypt"
صدفا,Sidfa,26.9644391,31.3761287,Sidfa Train Station,"X97G+QFC, Sodfa, Assiut Governorate 2032402, Egypt"
دروة,Derwah,24.4050004,32.9273139,Daraw Railway Station,"El-Abaseya, Draw, Aswan Governorate 81631, Egypt"
الواسطى,Wasta,29.33796169999999,31.2046537,محطة قطارات الواسطي,"86Q4+539, Madinet Al Wasta, El Wasta, Beni Suef Governorate 2757410, Egypt"
ببا,Biba,28.919462,30.97782969999999,Biba,"Madinet Beba, Biba, Beni Suef Governorate 2655217, Egypt"
الفشن,Fashn,28.8231601,30.9035808,El-Fashn,"Gazirat Al Wakliyah, Al Fashn, Beni Suef Governorate 2626901, Egypt"
بني مزار,Beni Mazar,28.4950757,30.8065249,محطة قطار بنى مزار,"Madinet Bani Mazar, Beni Mazar, Minya Governorate 2536201, Egypt"
ابو قرقاص,Abo Qurqas,27.930532,30.8384762,Abu Qurqas,"Abu Qurqas, Abu Qirqas, Minya Governorate, Egypt"
دير مواس,Dayr Mawas,27.6413455,30.85805999999999,Deir Mawas railway station محطة قطارات ديرمواس,"JVR5+G6M, Nazlet Muhammad Samhan, Deir Mawas, Minya Governorate 2326060, Egypt"
القوصية,Qusiyyah,27.4382322,30.83316659999999,محطة القوصية,"CRQM+77J، القوصية، فزارة، مركز القوصية، أسيوط،، فزارة، مركز القوصية، أسيوط،, El Qusiya, Egypt"
منفلوط,Manfalut,27.30768,30.9652609,Manfalut,"Manfalout, Manfalut, Assiut Governorate 2125220, Egypt"
ابو تشت,Abo Tesht,26.1165817,32.0955521,محطه قطار مركز ابوتشت,"438W+J6M, Madinet Abu Tesht, Abu Tesht, Qena Governorate 1584113, Egypt"
المنشأة,Monshaa,26.4761673,31.7967671,El-Monshaa,"Al Monshaah, Sohag Governorate 1665295, Egypt"
قفط,Qift,25.9940156,32.8008735,Qift,"Madinet Qaft, Qift, Qena Governorate 1440512, Egypt"
سلوا,Silwa Bahari,24.735971,32.93793,Silwa Bahari Railway Station,"PWPQ+95M, Markaz Kom Ombo, Aswan Governorate 1288111, Egypt"
كلابشة,Kalabsha,24.6238012,32.9497683,(محطة قطار كلابشة) Kalabshah Railway Station,"JWFX+VJC, Al Alaqi, Nasr, Aswan Governorate 1277810, Egypt"
دراو,Daraw,24.4050004,32.9273139,Daraw Railway Station,"El-Abaseya, Draw, Aswan Governorate 81631, Egypt"
مطاي,Matay,28.0968517,30.7540305,Minya Railway Station,"ميدان المحطة، المحطة, Minya, Minya Governorate 2451101, Egypt"
سملوط,Samalut,28.3109027,30.7139744,محطة قطارات سمالوط,"سمالوط، مدينة سمالوط، سمالوط، المنيا،, Egypt"
تلا,Tala,30.6780396,30.944803,Railway Station,"MWHR+J93, Ahmed Oraby, Madinet Tala, Tala, Menofia Governorate 6153846, Egypt"
البتانون,Batanun,30.6161671,30.9654862,محطة سكة حديد البتانون,"JX88+F59, Al Batanoun WA Hessateha, Shibin el Kom, Menofia Governorate 6124280, Egypt"
شبين الكوم ج,Shebeen Kom N,30.5535902,31.0050248,Railway Shebin City Station,"Qism Shebeen El-Kom, Shebeen El-Kom,, Qism Shebeen El-Kom, Shibin el Kom, Menofia Governorate, Egypt"
شبين الكوم ق,Shebeen Kom O,30.5535902,31.0050248,Railway Shebin City Station,"Qism Shebeen El-Kom, Shebeen El-Kom,, Qism Shebeen El-Kom, Shibin el Kom, Menofia Governorate, Egypt"
شنوان,Shanawan,30.44207909999999,30.9174096,محطة قطار كفر السنابسة Train station,"CWR8+RXM, Madinet Menuf, Menouf, Menofia Governorate 6042555, Egypt"
الحامول,Hamoul,30.4787083,30.9732131,محطة سكة حديد الحامول,"FXHF+G73, Port Said, El-Hamoul, Menouf, Menofia Governorate 6047170, Egypt"
منوف,Minuf,30.4628923,30.9385594,Menouf Train Station,"Al Mahata Al Kadema, Madinet Menuf, Menouf, Menofia Governorate 6053110, Egypt"
سمادون,Samadun,30.3344067,30.9574037,Railway station Smadun,"8XM4+QX6, Samadoun, Ashmoun, Menofia Governorate 6036010, Egypt"
اشمون,Ashmun,30.29872199999999,30.979408,محطة قطارات أشمون,"Abdel Moneim Riad St, Madinet Ashmoun, Ashmoun, Menofia Governorate 6022737, Egypt"
الحلواصي,Hilwasi,30.2509381,31.0560411,محطة قطار الحلواصي البلد,"Al Helwasi, Ashmoun, Menofia Governorate 6030330, Egypt"
الحلواصي البلد,Hilwasi B,30.2509381,31.0560411,محطة قطار الحلواصي البلد,"Al Helwasi, Ashmoun, Menofia Governorate 6030330, Egypt"
شطانوف,Shatanof,30.44207909999999,30.9174096,محطة قطار كفر السنابسة Train station,"CWR8+RXM, Madinet Menuf, Menouf, Menofia Governorate 6042555, Egypt"
القناطر ج,Qanatir N,30.1956494,31.1339222,El Kanater El Khayria Train Station,"54WM+7H3, block_st14_13, Madinet Al Qanater Al Khayreyah, El Qanater El Khayreya, Al-Qalyubia Governorate 6404141, Egypt"
قليوب البلد,Qalyoub B,30.1814655,31.204697,محطة قطار قليوب البلد,"56J3+HVP، قليوب - القناطر الخيرية، مدينة قليوب، قليوب، القليوبية،, Qalyub, Egypt"
العياط,Ayat,29.6201719,31.2556475,El-Aiat,"Madinet Al Ayat, El Ayyat, Giza Governorate 3325524, Egypt"
العسيرات,Usayrat,26.3913398,31.82018009999999,محطة العسيرات,"9RRC+G3P, شارع البلد, Awlad Hamza, Aserat, Sohag Governorate 1655119, Egypt"
الشراونة,Sharawnah,25.2208477,32.6710362,محطة الشراونة,"6MCC+8CM, Qena - Edfo, Ash Sharawnah, Edfo, Aswan Governorate 1297551, Egypt"
المحاميد,Mahamid,25.1340054,32.7780033,El Mahamid Railway Station,"4QMH+J62, Al Hagz Qebli, Edfo, Aswan Governorate 1294710, Egypt"
كاجوج,Kajuj,24.6697189,32.9472217,محطة قطار الكاجوج,"MW9W+VVP، MW9W+VVQ، كلابشة،, Markaz Kom Ombo, Aswan Governorate 1288006, Egypt"
اسوان,Aswan,24.0998701,32.902257,Aswan Railway Station,"كورنيش النيل، أسوان مدينة اسوان ثاني اجمل مدن العالم ذي طابع فريد، 81511, Egypt"
الحوامدية,Hawamdeyya,29.8942953,31.2703259,El Hawamdeyya Train Station,"V7VC+P5C، الحوامدية،, El Hawamdeya, Giza Governorate, Egypt"
البدرشين,Badrshein,29.8230412,31.2710558,محطة قطار البدرشين,"R7FC+6C7، R7FC+7X،، أبو رجوان البحري،، مركز البدرشين،, Giza Governorate 3365310،, Egypt"
المزغونة,Mazghounah,29.8094163,31.2709361,El-Mazghona,"Al Maraziq, Badrshein, Giza Governorate 3363901, Egypt"
كفر عمار,Kafr Ammar,29.4992988,31.2350053,Kafr Amar,"Kafr Torki WA Kafr Tarkhan, El Ayyat, Giza Governorate 3318373, Egypt"
الميمون,Maymun,30.4628923,30.9385594,Menouf Train Station,"Al Mahata Al Kadema, Madinet Menuf, Menouf, Menofia Governorate 6053110, Egypt"
اشمنت,Ashmant,30.0653204,31.1887237,Bashtil - Upper Egypt train station,"Bashtil, Al Warak, Giza Governorate 3811001, Egypt"
ناصر,Nasser,29.1445321,31.1382527,محطة قطار ناصر,"44VQ+R79، مدينة ناصر, Nasser, Beni Suef Governorate 2747201, Egypt"
دماريس,Damaris,28.1254174,30.7418474,محطة دماريس,"4PGR+5P8, Qism Minya, Minya, Minya Governorate 2426810, Egypt"
منقباد,Manqabad,27.1954047,31.1127373,محطة منقباد,"شارع تحت السكة, Manqabad, Asyut, Assiut Governorate 2085101, Egypt"
المرازيق,Maraziq,30.0626726,31.2458461,Ramsis station,"Ramses, Al Fagalah, Al Azbakeya, Cairo Governorate 4321102, Egypt"
الرقة,Raqqah,31.2189328,29.9424796,Sidi Gaber Railway Station,"Abou Quer, Sidi Gabir, Sidi Gaber, Alexandria Governorate 5433011, Egypt"
كوم أبو راضي,Kom Abo Rady,29.3326296,31.1422441,محطة قطارات كوم ابو راضي,"84MR+3V5, Abwit, El Wasta, Beni Suef Governorate 2754001, Egypt"
الورش,werash,30.0626726,31.2458461,Ramsis station,"Ramses, Al Fagalah, Al Azbakeya, Cairo Governorate 4321102, Egypt"
الروس,Rous,29.3439697,31.0715161,محطة قطار الروس,"83VC+HJ, El Wasta, Faiyum Governorate 2944911, Egypt"
الناصرية,Nasiriyah,31.0235633,46.2300664,An Nassiriya Train Station,"Nasiriyah, Dhi Qar Governorate, Iraq"
سيلا,Sila,29.3316217,30.973401,محطة سيلا,"8XJF+J9R، Unnamed Road, Al Basyouneyah, Faiyum, Faiyum Governorate 2948003, Egypt"
العدوة,Edwah,29.3412287,30.91583309999999,Train Station Adwa,"8WR8+F8W, Ezbet Abd Alnabi Hussein - Ezbet Ahmed Kleb, Al Edwah, Faiyum, Faiyum Governorate 2944363, Egypt"
عامرية الفيوم,Amereyat Fayoum,29.3089592,30.8476996,Fayoum Train Station,"El-Khalifa El-Maamoun, Qesm Al Fayoum, First Al Faiyum, Faiyum Governorate 2931004, Egypt"
ابا الوقف,Aba Wakf,28.5870904,30.77522189999999,ABA Al Wakf,"ABA Al Wakf, Maghagha, Minya Governorate, Egypt"
الروضة,Rawda,27.7974968,30.8617608,محطة الروضة,"QVW6+XPR, El-Rawda, Mallawi, Minya Governorate 2353134, Egypt"
برديس,Bardis,26.2836506,31.9443399,Station Pardis,"شارع نقطة شرطة برديس، برديس، مركز البلينا،، 7WMV+FP مركز البلينا, Sohag Governorate, Egypt"
ابو شوشة,Abo Shousha,26.1694439,32.0267624,Abu Shusha train station,"529G+QPC, Abou Shousha, Abu Tesht, Qena Governorate 1588870, Egypt"
الرديسية,Radisia,24.9040424,32.8799222,محطة قطار الرديسية,"AR Radiseyah Qebli, Edfo, Aswan Governorate 1294274, Egypt"
الرمادي,Ramadi,33.4121887,43.3197141,East of Ramadi Train Station,"Ramadi, Al Anbar Governorate, Iraq"
بورسعيد,Port Said,31.2602936,32.3009429,Port Said Railway Station,"7862+498، ميدان 15 مايو، حى الشرق، بور سعيد, Port Said Governorate 8571030, Egypt"
القنطرة غرب,Qantara Gharb,30.8567438,32.3141442,محطة قطار القنطرة غرب,"V847+MMR, El Qantara, Ismailia Governorate 8386733, Egypt"
الاسماعيلية,Ismailia,30.5930657,32.2702809,محطة قطار الاسماعيلية,"41511, Ismailia, 41511, Egypt"
ابو صوير,Abo Swer,30.56206509999999,32.1161816,Abusweir Railway station,"أبو صوير،، Ismailia Governorate 8333534, Egypt"
القصاصين,Qassasin,30.562586,31.9362554,محطة قطار القصاصين,"HW7P+2GJ، القصاصين، التل الكبير،, Al Kasasin Al Gadida, Ismailia Governorate, Egypt"
التل الكبير,Tal Kabeer,30.56305,31.7827117,Tell Al-Kabir train station,"التل الكبير, Tell El Kebir, Ismailia Governorate 8314522, Egypt"
ابو حماد,Abo Hammad,30.5362499,31.6779477,محطة قطار أبو حماد,"GMPH+G54، أبو حماد، كفر العزازي، مركز أبو حماد،، القطاوية، مركز أبو حماد، الشرقية،, Abu Hammad, Egypt"
الزقازيق,Zagazig,30.5825893,31.5020755,محطة قطارات الزقازيق,"برج ساعة المحطه، نفق السكه الحديد، يوسف، قسم ثان الزقازيق، الشرقية، وسط مدينة الزقازيق قريبه من الكورنيش بجوار، شارع فاروق, Al-Sharqia Governorate 44511, Egypt"
منية القمح,Menyet Qamh,30.5155926,31.3424549,Menia Al-Qamh Railway Station,"G88R+6XP، طريق بنها - الزقازيق، منيا القمح، مركز منيا القمح،, Markaz Minyā al Qamḩ, Al-Sharqia Governorate, Egypt"
المتانية,Matanyah,29.5708929,31.2516922,Al Mataneya,"Mataneya, Al, El Ayyat, Giza Governorate, Egypt"
الفيوم,Faiyum,29.3089592,30.8476996,Fayoum Train Station,"El-Khalifa El-Maamoun, Qesm Al Fayoum, First Al Faiyum, Faiyum Governorate 2931004, Egypt"
القطورى,Qotouri,30.96844,30.9593523,Qutour Train Station,"XX95+9PH, Madinet Qotour, Kotoor, Gharbia Governorate 6724732, Egypt"
الشيخ هارون,Sheikh Haroun,30.10137,31.33297,Haroun,"El-Nozha, El Nozha, Cairo Governorate 4470110, Egypt"
كيما,Kima,24.0682027,32.918248,محطة قطار كيما,"3W99+77Q, Halaieb - Aswan Rd, أسوان، ثان اسوان،، البحر الأحمر 1243103, Egypt"
الصداقة,Sadaka,24.0514023,32.9199777,محطة قطار الصداقة,"3W29+HX9، 3W2C+H3،، ثان اسوان،،, Aswan Governorate 1243001, Egypt"
سدس,Suds,31.2189328,29.9424796,Sidi Gaber Railway Station,"Abou Quer, Sidi Gabir, Sidi Gaber, Alexandria Governorate 5433011, Egypt"
طحا البيشة,Taha Bishah,30.281027,31.2934789,Taha Noub Train Station,"Taha Nob, Shibin el-Qanater, Al-Qalyubia Governorate 6330451, Egypt"
طنسا,Tansa,29.0056817,31.0186684,محطة طنسا,"2249+7F8، طنا بني مالو، طنسا بني مالو، ببا،، طنسا بني مالو، ببا، محافظة بني سويف،, Biba, 2656401, Egypt"
الزيتون ق,Zaytoun Q,30.1138606,31.3141365,محطة مترو حلمية الزيتون - Helmeyat Alzaitoon subway station,"4877+GJV, El-Kamal, Helmeyat AZ Zaytoun, Ain Shams, Cairo Governorate 4540001, Egypt"
بني حدير,Beni Hidayr,29.2552305,31.1941266,محطة بني حدير,"754V+3MR, Al Wasta - Al Maymun, Nazlet Al Geneidi, El Wasta, Beni Suef Governorate 2756501, Egypt"
اطواب,Atwab,29.3877117,31.1962519,محطة اطواب,"طريق أسوان الزراعي الغربي، صفط الشرقية، مركز الواسطى، محافظة بني سويف،، الوسطي, Egypt"
ميت القايد,Mit Qayed,29.5313104,31.2521043,محطة ميت القايد,"G7J2+GRH، طريق أسوان الزراعي الغربي، العياط، الجيزة،, El Ayyat, Egypt"
البليدة,Blida,36.4786264,2.8161941,Blida Railway Station,"Blida, Algeria"
السد العالي,The High Dam,23.9752585,32.8975661,High Dam railway station,"XVGX+424، منطقة السد العالي، قسم أسوان،, Aswan 1, Aswan Governorate, Egypt"
المنصورة,Mansoura,31.0453964,31.3882888,Mansoura Train Station,"Gameat Al Dewal Al Arabiya St, Mansoura Qism 2, El Mansoura, Dakahlia Governorate 7660015, Egypt"
سندوب,Sandub,31.0160688,31.3930273,Train Station Sandoub,"El-Senbellawein - Mansoura Rd, Menyat Sandoub, El Mansoura, Dakahlia Governorate 7653001, Egypt"
شاوة,Shawah,30.5800076,32.173758,Allowasfih Train Station in Ismailia,"الواصفية على بعد 100 متر من الوحدة المحلية لمدينة الواصفية, Egypt"
البقلية,Baqliyyah,30.9593439,31.4217976,محطة قطار البقلية,"El-Senbellawein - Mansoura Rd, Al Baqleyah, El Mansoura, Dakahlia Governorate 7634020, Egypt"
الزريقي,Zurayqi,30.9372187,31.4329575,Alzoreiky Train Station,"El-Senbellawein - Mansoura Rd, AZ Zoreiqi, El Senbellawein, Dakahlia Governorate 7541866, Egypt"
شبرا قبالة,Shobra Qubala,30.9162049,31.4435647,محطة قطار شبرا قبالة,"El-Senbellawein - Mansoura Rd, Tanbarah, El Senbellawein, Dakahlia Governorate 7541823, Egypt"
السنبلاوين,Senbellawein,30.8841029,31.4616014,Railway station Sinbillawain,"شارع ترعة البوهية, El-Senbellawein City, El Senbellawein, Dakahlia Governorate 7541716, Egypt"
طرانيس العرب,Taranis Arab,30.8698583,31.503272,Taranis Al Arab,"Taranis Al Arab, El Senbellawein, Dakahlia Governorate, Egypt"
برقين,Barqin,30.855625,31.529481,محطة قطار برقين,"VG4H+7Q5, Kafr Saqr El-Senbellawein, Barqin, El Senbellawein, Dakahlia Governorate 7546302, Egypt"
هيكل باشا,Hikal Basha,30.8407132,31.5688048,محطه هيكل باشا,"RHR9+7GM، كفر غنام، السنبلاوين،, El Senbellawein, Dakahlia Governorate, Egypt"
ابو الشقوق,Abo Shuquq,26.1165817,32.0955521,محطه قطار مركز ابوتشت,"438W+J6M, Madinet Abu Tesht, Abu Tesht, Qena Governorate 1584113, Egypt"
بدوي,Badawy,30.8125992,31.610316,محطة قطار بدوى,"RJ76+24P، أبو الشقوق، Kafr Saqr, Al-Sharqia Governorate 7241594, Egypt"
كفر صقر,Kafr Saqr,30.7927833,31.62732399999999,Kafr Sakhr,"Amr Ibn El-Aas St, Monshaat Shalaby, Kafr Saqr, Al-Sharqia Governorate 7241334, Egypt"
البوها,Bouha,30.4558513,31.1806955,Benha railway station,"Qism Banha, Banha, Al-Qalyubia Governorate 6460301, Egypt"
نزلة الخيال,Nazlet Khayal,30.2207124,31.3605536,Al Khanka Train Station,"69C6+76X, El-Imam El-Ghazaly, Madinet Al Khankah, Al Khankah, Al-Qalyubia Governorate 6350506, Egypt"
ابو كبير,Abo Kibir,30.7270372,31.6684678,محطة سكك حديد أبوكبير,"PMG9+R98، Abu Kebeer, أبو كبير، مركز أبو كبير، الشرقية،, Abu Kabir, Egypt"
ابو ياسين,Abo Yassin,24.0998701,32.902257,Aswan Railway Station,"كورنيش النيل، أسوان مدينة اسوان ثاني اجمل مدن العالم ذي طابع فريد، 81511, Egypt"
شرشيمة,Shirshimah,30.6929658,31.6200431,محطة قطار شرشيمة,"MJVC+52F، Unnamed Road, Sharsheimah, Hihya, Al-Sharqia Governorate 7218720, Egypt"
هيها,Hihya,30.6708201,31.5902907,Hehia,"Hehya, Hihya, Al-Sharqia Governorate 7213270, Egypt"
العداوية,Adawyh,24.4050004,32.9273139,Daraw Railway Station,"El-Abaseya, Draw, Aswan Governorate 81631, Egypt"
كفر المسلمية,Kafr Msalamya,31.1095836,30.9393033,Kafr El-Sheikh Train Station,"محطه قطار كفرالشيخ، كفر الشيخ - طنطا، قسم كفر الشيخ،, Kafr El-Sheikh Governorate, Egypt"
هرية رزنة,Harayah Raznah,30.6061445,31.5330771,محطة هرية رزنة,"JG4M+C7J، محطة سكة حديد الزقازيق، ميدان عرابى، الزقازيق، الشرقية،, Zagazig, Egypt"
العصلوجي,Asluji,30.5549424,31.5210137,محطة قطار العصلوجي,"Al Aslougi, Zagazig, Al-Sharqia Governorate 7141765, Egypt"
بردين,Bardein,30.5043999,31.5393167,محطة قطار بردين,"GG3Q+QP4, Belbeis - Zagazig Rd, Bardein, Zagazig, Al-Sharqia Governorate 7146112, Egypt"
اولاد سيف,Awlad Seif,30.4671344,31.5500398,محطة قطار أولاد سيف,"23 شارع الشهيد احمد العوضى،, Bilbeis, Al-Sharqia Governorate, Egypt"
بلبيس,Belbes,30.3952514,31.4869162,Berammarh Train Station,"9FWP+4Q3, Tarik Anashas, Bilbeis, Al-Sharqia Governorate 7032701, Egypt"
تل روزن,Tall Rozan,30.3965632,31.499885,Tall Rozan,"Tall Rozan, Bilbeis, Al-Sharqia Governorate, Egypt"
بير عمارة,Bir Imarah,30.3952514,31.4869162,Berammarh Train Station,"9FWP+4Q3, Tarik Anashas, Bilbeis, Al-Sharqia Governorate 7032701, Egypt"
انشاص,Inshas,30.3795719,31.4545189,Anshass Train Station,"9FH3+RRC, Tarik Anshas, Enshas AR Raml, Bilbeis, Al-Sharqia Governorate 7040210, Egypt"
سلمنت,Salamant,30.3637145,31.4207458,محطة قطار سلمنت,"9C7C+G7Q, Selmant, Bilbeis, Al-Sharqia Governorate 7030201, Egypt"
مشتول,Mashtul,30.3483628,31.38884639999999,محطة قطار مشتول السوق,"89XQ+8GX, Mashtoul as Souq, Mashtol Al Souq, Al-Sharqia Governorate 7022044, Egypt"
منشأة الكرام,Monshaat Kiram,30.3315952,31.3540265,محطة منشأة الكرام,"89J3+JJJ, Mashtool Rd, Monshaat Al Keram, Shibin el-Qanater, Al-Qalyubia Governorate 6337501, Egypt"
شبين القناطر,Shibin Qanatir,30.3129365,31.3269199,محطة قطار منية شبين القناطر,"887G+5QF, Menyet Shebeen, Shibin el-Qanater, Al-Qalyubia Governorate 6335272, Egypt"
كفر شبين,Kafr Shebeen,30.29688179999999,31.3003291,محطة كفر شبين,"78W2+Q44، شارع بطن الجسر، كفر شبين، شبين القناطر،, Shibin el-Qanater, Al-Qalyubia Governorate, Egypt"
طحانوب,Tahanub,30.281027,31.2934789,Taha Noub Train Station,"Taha Nob, Shibin el-Qanater, Al-Qalyubia Governorate 6330451, Egypt"
كفر طحا,Kafr Taha,30.281027,31.2934789,Taha Noub Train Station,"Taha Nob, Shibin el-Qanater, Al-Qalyubia Governorate 6330451, Egypt"
الزهوين,Zahawiyin,30.25669509999999,31.2832391,محطة قطار الزهويين,"774M+M7H, Qaluib - Shebean Rd Rd, Nob Taha, Shibin el-Qanater, Al-Qalyubia Governorate 6331254, Egypt"
نوى,Nawa,30.2335047,31.2670818,محطة قطار نوى,"67M8+CR4, Qaluib - Shebean Rd Rd, نوى، Shibin el-Qanater, Al-Qalyubia Governorate 6331136, Egypt"
كفر رمادة,Kafr Ramadah,30.2098153,31.2435568,محطة قطار كفر رمادة,"665V+WCF, Qaluib - Shebean Rd Rd, ناي، Qalyub, Al-Qalyubia Governorate 6314140, Egypt"
الزاوية الحمراء,Zawya Hamraa,30.086625,31.267592,محطة قطار الزاوية الحمراء,"9 النقراشي، الزاوية الحمراء، قسم الزاوية الحمراء، محافظة القاهرة‬،, Egypt"
طلخا,Talkha,31.0540958,31.3772871,Talkha Train Station,"393G+JWM, Talkha City, Talkha, Dakahlia Governorate 7625388, Egypt"
سمنود,Samannoud,30.96428749999999,31.2462624,محطه قطار سمنود,"X67W+PG6، طريق سمنود - أجا - ميت غمر, Samannoud City, Samannoud, Dakahlia Governorate 6788007, Egypt"
المحلة الكبرى,Mahalla Kubra,30.9689908,31.1687061,محطة قطار المحلة الكبرى,"X599+HFW, Al Mahalah Al Kubra (Part 2), El Mahalla El Kubra 2, Gharbia Governorate 6743104, Egypt"
محلة روح,Mahallat Rouh,30.8742788,31.0850363,Mahlet Rouh,"Mahalat Rouh, Tanta, Gharbia Governorate 6648710, Egypt"
جامعة الأزهر,Azhar University,30.0580481,31.31259399999999,Al-Azhar University,"Al Mokhaym Al Daem, Gameat Al Azhar, مدينة نصر،، Cairo Governorate 4434103, Egypt"
ميت عساس,Mit Assas,31.0062491,31.2892932,Train station Mit Asas,"Al Mahallah Al Kubra Rd - Mansoura Rd, Mit Asas, Samannoud, Gharbia Governorate 6787330, Egypt"
شبلنجة,Shiblanjah,30.4750371,31.2630387,محطة قطار شبلنجة,"F7G7+267، طريق بنها - الزقازيق، شبلنجة، بنها، القليوبية،, Banha, Egypt"
العزيزية,Aziziyyah,30.4814047,31.2904676,Al-Aziziyah Train Station,"F7JR+H58، طريق بنها - الزقازيق، العزيزية، مركز منيا القمح، الشرقية،, Markaz Minyā al Qamḩ, Egypt"
شربين,Shirbin,31.1915938,31.5267491,Sherbin Train Station,"5GRG+JMQ, 23-Jul, Sherbeen City, Shirbin, Dakahlia Governorate 7745311, Egypt"
كفر سعد,Kafr Saad,31.3550618,31.6889916,محطة قطار تفتيش كفر سعد,"تفتيش كفر سعد عزبت السوق تفتيش، تفتيش, Kafr Saad, Damietta Governorate, Egypt"
راس الخليج,Ras Khaleej,31.2459831,31.61641,محطة قطار راس الخليج,"6JW8+9HV, Kafr at Teraa Al Gadidah, Shirbin, Dakahlia Governorate 7746601, Egypt"
دمياط,Damietta,31.4187479,31.8080119,Damietta Railway Station,"CR95+F6R, الكوبرى المعدنى, Qism Damietta, Dameitta Second, Damietta Governorate 8050302, Egypt"
راس العش,Ras Esh,31.1370842,32.304324,محطة قطار راس العش,"48P3+RPP, Ismailia - Port Said Rd, Al Ganoub, Port Said Governorate 8524540, Egypt"
كوم حلين,Kom Halin,30.4870492,31.31452569999999,Kom Halin Train Station,"F8P7+RR, Kom Halin, Markaz Minyā al Qamḩ, Al-Sharqia Governorate 7002073, Egypt"
محجر ابو حماد,Mahjar Abo Hammad,30.5362499,31.6779477,محطة قطار أبو حماد,"GMPH+G54، أبو حماد، كفر العزازي، مركز أبو حماد،، القطاوية، مركز أبو حماد، الشرقية،, Abu Hammad, Egypt"
سرابيوم,Serapeum,29.8760704,31.2102537,Serapeum of Saqqara,"V6G6+C4C, Badrshein, Giza Governorate 3352001, Egypt"
ابو سلطان,Abo Sultan,30.4122362,32.312342,محطة قطار أبو سلطان,"C866+VWW, أبو سلطان،،, Fayid, Ismailia Governorate, Egypt"
فايد,Fayed,30.3315219,32.2937707,محطة قطار,"87JV+JG2, Fayid, Ismailia Governorate 8343321, Egypt"
جنيفة,Jenefh,30.1167553,32.5631007,محطة قطار جنيفة,"4H87+P65, Al Sweis - Ismaelia Al Zerai Rd, Fifth Shyakha, Al Ganayen, Suez Governorate 8176742, Egypt"
الشيخ زايد,Sheikh Zayed,30.6022548,32.2977716,El-Shikh Zayed,"El Sheikh Zayed, Ismailia 3, Ismailia Governorate 8364204, Egypt"
الزنكلون,AZ Zanklun,30.5597688,31.4433617,محطة قطار الزنكلون,"HC5V+V9R, AZ Zankaloun, Zagazig, Al-Sharqia Governorate 7102107, Egypt"
الغابة,Ghaba,26.3374136,31.8888655,Gerga Station,"8VPQ+XG9, Gerga, Sohag Governorate 1632201, Egypt"
خلف الله,Khalafallah,30.1761076,31.3481858,Qalag train station,"Al Qalg, Al Khankah, Al-Qalyubia Governorate 6345306, Egypt"
الفدادنة,Fadadnah,30.7443262,31.7497647,محطة الفدادنة,"PPVX+PWR، الزقازيق - فاقوس، العارين، مركز فاقوس، الشرقية،، PPVX+FWW، العارين، مركز فاقوس،, Al-Sharqia Governorate 7315305،, Egypt"
البيروم,Bayrum,30.7453838,31.7692728,محطة قطار البيروم,"PQW9+5P2، الزقازيق، البيروم, Faqous, Al-Sharqia Governorate 7315560, Egypt"
فاقوس,Faqus,30.7275545,31.79431829999999,محطة قطار فاقوس,"محطة قطار فاقوس، مدينة فاقوس ، مركز فاقوس ، الشرقية ، مصر، البيروم، مركز فاقوس، الشرقية 44641،، 44641, Egypt"
جهينة,Geheinah,30.7242504,31.8145867,محطة قطار جهينة,"محطة قطار جهينه، جهينة البحرية - مركز فاقوس - الشرقية - مصر، الديدمون، مركز فاقوس، الشرقية 44823،، 44823, Egypt"
كفر الحاج عمر,Kafr Haj Omar,30.7332201,31.8451859,محطة قطار كفر الحاج عمر,"كفر الحاج عمر - مركز فاقوس - الشرقية - مصر، السعرانه - المشايخ, Faqous, Al-Sharqia Governorate 44768, Egypt"
اكياد,Akyad,30.7427014,31.8768162,محطة قطار إكياد,"محطة قطار أكياد، أكياد البحرية - مركز فاقوس - الشرقية - مصر، دوامة، مركز فاقوس، الشرقية، 44732, Egypt"
الدراكة,Drakh,31.228861,29.96541,محطة قطار الظاهرية - Ad Dhahereyya Railway Station,"2 Adel Awad Allah, ADH Dhahereyah WA Izbat as Safih, El Raml 1, Alexandria Governorate 5450015, Egypt"
اباظة,Abaza,30.75546799999999,31.9195892,محطه قطار اباظه,"محطة قطار أباظه, Qahbounah, Faqous, Al-Sharqia Governorate 44732, Egypt"
العزازي,Azzazi,30.7621278,31.9419498,محطة قطار العزازى,"QW6R+VQ4, محطة قطار العزازى، العزازى - مركز فاقوس - الشرقية - مصر،, Qahbounah, Faqous, Al-Sharqia Governorate 44734, Egypt"
الكابيشة,Kabaysha,30.7721244,31.9754555,محطة قطار الكبايشة,"كفر الكبايشة، الأخيوة، مركز الحسينية،، QXCG+V82، الأخيوة، مركز فاقوس،, Al-Sharqia Governorate 7316583،, Egypt"
التينة,Tenh,30.0653204,31.1887237,Bashtil - Upper Egypt train station,"Bashtil, Al Warak, Giza Governorate 3811001, Egypt"
الصالحية,Salheya,30.778848,31.9981494,Salehia Train Station,"QXHX+G7J, Al Mounagat as Sughra, Faqous, Al-Sharqia Governorate 7317847, Egypt"
السويس,Suez,29.9889369,32.5276841,Suez Train Station,"XGQH+J4M, 23-Jul, Faisal, Suez Governorate 8153010, Egypt"
منية السباع,Menyet Sebaa,28.0968517,30.7540305,Minya Railway Station,"ميدان المحطة، المحطة, Minya, Minya Governorate 2451101, Egypt"
ميت يزيد,Mit Yazid,30.5006354,31.32920799999999,محطة قطار ميت يزيد,"G82H+7M4, Maher Abaza St, Mit Yazid, Markaz Minyā al Qamḩ, Al-Sharqia Governorate 7002106, Egypt"
الجديدة,Jadidah,30.5340917,31.3816202,محطة قطار الجديدة,"G9MJ+JJQ، الزقازيق, El-Gadeeda, Markaz Minyā al Qamḩ, Al-Sharqia Governorate 7003507, Egypt"
القراقرة,Qaraqrah,30.1761076,31.3481858,Qalag train station,"Al Qalg, Al Khankah, Al-Qalyubia Governorate 6345306, Egypt"
الصوة,Sawah,30.0653204,31.1887237,Bashtil - Upper Egypt train station,"Bashtil, Al Warak, Giza Governorate 3811001, Egypt"
بسنديله,Basandilah,31.2006337,31.4369176,محطة قطار بسنديله,"6C2P+7Q3, Gamasa - Sherbein, Basandilah, Belqas, Dakahlia Governorate 7726102, Egypt"
بلقاس,Belkas,31.2089241,31.3556841,Belkas railway station,"6954+H7F, Sour Al Mahata, Belkas City, Belqas, Dakahlia Governorate 7721003, Egypt"
بيلا,Biyala,31.1754344,31.22707539999999,Biyala Train Station,"56CC+XJ8, El-Thawra, Madinet Biyala, Bila, Kafr El-Sheikh Governorate 6963412, Egypt"
ابشان,Ibshan,31.1700173,31.1629588,Ebshan Train Station محطة قطار إبشان,"Kafr El-Shaikh Belkas, Abshan, Bila, Kafr El-Sheikh Governorate 6950578, Egypt"
الكوم الطويل,Kom Taweel,31.1979099,31.0887081,محطة القطار,"شارع المحطة, El-Kom El-Taweel, Bila, Kafr El-Sheikh Governorate 6950122, Egypt"
سيدي غازي,Sidi Ghazy,31.2069375,31.0538125,Sidi Ghazi train station,"Sidi Ghazy, Kafr el-Sheikh, Kafr El-Sheikh Governorate 6876945, Egypt"
المرابعين,Murabian,31.15743,31.0015923,Elmorabeen Train Station,"5242+XJ9, Al Merabein, Kafr el-Sheikh, Kafr El-Sheikh Governorate 6876580, Egypt"
كفر الشيخ,Kafr Sheikh,31.1095836,30.9393033,Kafr El-Sheikh Train Station,"محطه قطار كفرالشيخ، كفر الشيخ - طنطا، قسم كفر الشيخ،, Kafr El-Sheikh Governorate, Egypt"
سخا,Sakha,31.0893461,30.9437666,Sakha Train Station,"shikh, Kafr Abu Tabl, Kafr Al Sheikh First, Kafr El-Sheikh Governorate, Egypt"
محلة موسى,Mahallat Mousa,31.09101219999999,30.8991913,محطة محلة موسي,"3VRX+CM4، Unnamed Road, Mahalah Mousa, Kafr el-Sheikh, Kafr El-Sheikh Governorate 6872320, Egypt"
نشرت,Nashart,30.0653204,31.1887237,Bashtil - Upper Egypt train station,"Bashtil, Al Warak, Giza Governorate 3811001, Egypt"
قلين,Qleen,31.0502455,30.8404791,محطة سكة حديد قلين,"Madinet Qillin, Qallīn, Kafr El-Sheikh Governorate 6842402, Egypt"
سجين,Segin,30.0653204,31.1887237,Bashtil - Upper Egypt train station,"Bashtil, Al Warak, Giza Governorate 3811001, Egypt"
ابشواي,Ebshway,29.3089592,30.8476996,Fayoum Train Station,"El-Khalifa El-Maamoun, Qesm Al Fayoum, First Al Faiyum, Faiyum Governorate 2931004, Egypt"
قطور,Qotur,30.96844,30.9593523,Qutour Train Station,"XX95+9PH, Madinet Qotour, Kotoor, Gharbia Governorate 6724732, Egypt"
الشين,Shin,31.0130595,30.8964495,محطة الشين,"2V7W+6HG, Ash Shin, Kotoor, Gharbia Governorate 6723401, Egypt"
قلين البلد,Qleen B,31.0424146,30.8553624,محطه قلين البلد,"2VR4+X44, Al Deyok, Madinet Qillin, Qallīn, Kafr El-Sheikh Governorate 6842601, Egypt"
كفر سليم,Kafr Selim,30.7375619,30.9754955,Kafr El Sheikh Selim Train Station,"PXQG+25H, Kafr El-Shaikh Selim, Tanta, Gharbia Governorate 6641357, Egypt"
كفر طبلوها,Kafr Tabluha,30.6438753,30.9472883,محطة قطار كفر طبلوها مركز تلا,"JWVW+HW3، كفر طبلوها, Tala, Menofia Governorate 6156010, Egypt"
كفر البتانون,Kafr Batanun,30.6161671,30.9654862,محطة سكة حديد البتانون,"JX88+F59, Al Batanoun WA Hessateha, Shibin el Kom, Menofia Governorate 6124280, Egypt"
طنبدي,Tanbadi,30.5872091,30.9844744,Tanbedi railway station,"HXPM+VQG, Tanbedi, Tanbadi, Shibin el Kom, Menofia Governorate 6124011, Egypt"
كفر السنابسة,Kafr Sanabisah,30.44207909999999,30.9174096,محطة قطار كفر السنابسة Train station,"CWR8+RXM, Madinet Menuf, Menouf, Menofia Governorate 6042555, Egypt"
كمشوش,Kamshush,30.4190574,30.92287159999999,Kamshoush Train Station,"CW9F+J4H, Kamshoush, Menouf, Menofia Governorate 6043001, Egypt"
شما,Shama,30.3875523,30.9315247,محطة قطار شما,"9WQJ+2JC، شما, Ashmoun, Menofia Governorate 6028366, Egypt"
رملة الأنجب,Ramlat Injib,30.3674424,30.9354045,Railway station Ramlet Alonhab,"9W8P+X5C, Al Angab, Ashmoun, Menofia Governorate 6038003, Egypt"
جامع بدر,Badr Mosque,30.1748915,31.7161444,محطة بدر التبادلية القطار الكهربائي الخفيف LRT,"5PG8+395، الظهير الصحراوى لمحافظة القاهرة،, Cairo Governorate 4954540،, Egypt"
محلة سبك,Mahallat Subk,30.2756635,31.0097953,محطة محلة سبك,"72G5+7W7، Unnamed Road, محلة سبك ومنشأة نصر، أشمون، المنوفية،, Ashmoun, Egypt"
كفر صراوة,Kafr Sarawah,30.2417791,31.0900275,محطة قطار كفر صراوة,"63RR+P26، دروة، Ashmoun, Menofia Governorate 6031324, Egypt"
شلقان,Shalaqan,30.1818156,31.1701893,محطة قطار شلقان,"55JC+P3G، التقسيم السياحى, Kafr Selim، القناطر الخيرية،, Al-Qalyubia Governorate 6405330, Egypt"
سنجرج,Sengerg,30.508956,30.9328216,محطة قطار سنجرج.,"GW5M+H4P، Unnamed Road, Teta, Menouf, Menofia Governorate 6046720, Egypt"
منشأة سلطان,Monshaat Sultan,30.5298245,30.9178869,محطة منشأة سلطان,"GWH9+W5J, El-Gaish, Monshaat Sultan, Menouf, Menofia Governorate 6048240, Egypt"
العراقية,Iraqiyyah,26.3374136,31.8888655,Gerga Station,"8VPQ+XG9, Gerga, Sohag Governorate 1632201, Egypt"
عشما,Ashma,24.0998701,32.902257,Aswan Railway Station,"كورنيش النيل، أسوان مدينة اسوان ثاني اجمل مدن العالم ذي طابع فريد، 81511, Egypt"
الشهداء,Shohada,30.0610714,31.2460506,Al-Shohadaa,"Al Gayarah, Al Azbakeya, Cairo Governorate 4320151, Egypt"
دنشواى,Dinshaway,26.123184,32.4618088,محطة سكة حديد مصر بدشنا,"4FF6+7PF، المحطة، مدينة دشنا، دشنا،, Dishna, Qena Governorate, Egypt"
زاوية البقلى,Zawiyat Baqli,30.6246353,30.8077173,محطة قطار زاوية البقلى,"JRF5+V34 عزبه الحطيم, زاويه الناعوره, Zawyet Al Baqli, El Shohada, Menofia Governorate 6114255, Egypt"
بشتامي,Beshtami,30.6416088,30.8057243,محطة بشتامي,"JRR4+J7X, Ezbet Al Heten Zawyet Al Nahoma, Beshtami, El Shohada, Menofia Governorate 6115102, Egypt"
عمروس,Amrus,30.0626726,31.2458461,Ramsis station,"Ramses, Al Fagalah, Al Azbakeya, Cairo Governorate 4321102, Egypt"
كوم مازن,Kom Mazin,24.4768122,32.9472276,Kom Ombo Railway Station,"كوم امبو، كوم أمبو، مركز كوم أمبو، اسوان, Aswan Governorate, Egypt"
طنوب,Tunub,30.6903195,30.8092884,Tunub railway station,"MRR5+4PF، طنوب، Tala, Menofia Governorate 6151210, Egypt"
عزبة الحطيم,Izbat Hutaym,31.228861,29.96541,محطة قطار الظاهرية - Ad Dhahereyya Railway Station,"2 Adel Awad Allah, ADH Dhahereyah WA Izbat as Safih, El Raml 1, Alexandria Governorate 5450015, Egypt"
مشلة,Mishlah,30.0653204,31.1887237,Bashtil - Upper Egypt train station,"Bashtil, Al Warak, Giza Governorate 3811001, Egypt"
كفر مشلة	,Kafr Mishlah,31.1095836,30.9393033,Kafr El-Sheikh Train Station,"محطه قطار كفرالشيخ، كفر الشيخ - طنطا، قسم كفر الشيخ،, Kafr El-Sheikh Governorate, Egypt"
قصر نصر الدين	,Qasr Nasr Din,30.7882095,30.8215256,محطة قصر نصر الدين,"QRQC+7JJ, Qasr Nasr Ad Din, Kafr El Zayat, Gharbia Governorate 6611420, Egypt"
الدلجمون,Daljamun,30.8088676,30.8335655,محطة قطار الدلجمون,"RR5M+GCW، قصر، الدلجمون -قصر نصر الدين، كفر الزيات، الغربية،, Kafr El Zayat, Egypt"
ورورة,Warwarah,30.49155859999999,31.1761978,محطة قطار ورورة,"F5RG+JFG, Warwarah, Banha, Al-Qalyubia Governorate 6456341, Egypt"
دملو,Damallu,31.0453964,31.3882888,Mansoura Train Station,"Gameat Al Dewal Al Arabiya St, Mansoura Qism 2, El Mansoura, Dakahlia Governorate 7660015, Egypt"
ميت الحوفيين,Mit Hufiyyin,30.52294759999999,31.1945819,محطة قطار ميت الحوفيين,"G5FV+5RG, Demlo, Banha, Al-Qalyubia Governorate 6457252, Egypt"
ميت بره,Mit Barh,30.5457763,31.2089972,محطة قطار ميت بره,"G6W5+8H9، ميت بره وكفر الشهيد، مركز قويسنا،, Qewaisna, Menofia Governorate, Egypt"
بقسا,Baqsa,31.2089241,31.3556841,Belkas railway station,"6954+H7F, Sour Al Mahata, Belkas City, Belqas, Dakahlia Governorate 7721003, Egypt"
شبرا بخوم,Shobra Bukhum,30.5714586,31.23112129999999,محطة قطار شبرا بخوم,"H6CJ+HCQ, Mit Al Ebsi, Qewaisna, Menofia Governorate 6145461, Egypt"
تفهنا العزب,Tafahna Azab,30.5981235,31.239397,Tafahna Al azab Train Station,"H6XQ+6QR, Tefehna Al Izab, Zefta, Gharbia Governorate 6671201, Egypt"
ميت الحارون,Mit Harun,30.620732,31.242639,Mit Alharon Train Station,"J6CV+73R, Kafr as Sarem Al Qebli, Zefta, Gharbia Governorate 6671360, Egypt"
سعد زغلول,Saad Zaghloul,30.0370333,31.238362,Saad Zaghloul,"Mansour, Khairat, El-Sayeda Zainab، Cairo Governorate 4262131, Egypt"
اسماعيل صدقي,Ismail Sedky,30.6704785,31.2501977,Ismail Pasha Sedky Train Station-El Ghurayb,"El-Gharib, Zefta, Gharbia Governorate 6674070, Egypt"
منصور باشا,Mansour Basha,30.6955185,31.2476311,محطة منصور باشا,"M6WX+632، ميت غمر - ميت بره, Send Bast, Zefta, Gharbia Governorate 6674173, Egypt"
زفتى,Zefta,30.7228574,31.2441256,محطه قطار زفتي,"P6FV+5J5، مدينة زفتى، زفتى،, Zefta, Gharbia Governorate 6663049, Egypt"
ميت غمر,Mit Ghamer,30.7188795,31.2605518,محطة قطار ميت غمر,"شارع المحطة،, Madinet Mit Ghamr (Include Daqados)، ، ميت غمر،، الدقهلية،, Egypt"
سيدي حنيش,Sidi Henash,31.1635555,27.6285705,محطة قطار سيدى حنيش,"5J7H+89H, Mersa Matruh, Marsa Matrouh Governorate 5058506, Egypt"
جنينة القباري,Genenet Qbaary,31.1713194,29.885026,محطة جنينة القبارى,"5VCP+G2, Al Qabari, Port al-Basal, Alexandria Governorate 5334021, Egypt"
المتراس,Metras,31.1597967,29.8734849,El Metras Station,"Al Metras, Port al-Basal, Alexandria Governorate 5331101, Egypt"
مواصلة المكس,Mowaslet Max,31.151904,29.8507393,محطة قطار المكس,"5V22+Q75، المكس، قسم الدخيلة،, Al Max, Al Meks, Dekhela, Alexandria Governorate 5311294, Egypt"
سيدي مرغب,Sidi Mergheb,31.0967615,29.8577593,محطة قطار سيدى مرغب,"كم 19 طريق السكة الحديد تفرع من, Cairo - Alexandria Desert Rd, Margham, Amreya 1, Alexandria Governorate 5255377, Egypt"
التفرع,Tafaro,31.0614827,29.848217,محطة قطار التفرع,"Qetaa an Nahdah, Amreya 1, Alexandria Governorate 5255382, Egypt"
عبد القادر,Abd Qader,31.0392523,29.8285145,محطه قطار عبد القادر,"2RQH+PC2, Zawya Abd El-Qader, Amreya 1, Alexandria Governorate 5254801, Egypt"
ايكنجي مريوط,Ekeingy Maryout,30.9981687,29.7643754,محطه سكه حديد كينج مريوط,"XQX7+7Q6، الاسكندرية, كينج مريوط،, Ekeingy Maryout (Sharq WA Gharb)، ، ثانى العامرية،, Egypt"
مريوط,Maryout,31.0183325,29.7981673,Amiriya Train Station,"2Q9X+87M, Al Amrereyah Gharb, Amreya 1, Alexandria Governorate 5254501, Egypt"
بهيج,Baheeg,30.9216875,29.5956475,محطة قطار بهيج,"Bahig, Borg El Arab, Alexandria Governorate 5216211, Egypt"
الغربانيات,Gharbaniat,31.2188782,29.9425517,Sidi Gaber Railway Station,"6W9V+H23، سيدي جابر،, Sidi Gaber, Alexandria Governorate, Egypt"
الجباسات,Gabbasat,30.7871937,29.1339368,Train Station Aljbact,"Q4PM+VHF، Unnamed Road, قسم, Marina El Alamein, Marsa Matrouh Governorate 5074010, Egypt"
تل العيسى,Tal Issa,30.8818124,28.8431316,محطة قطار تل عيسى,"VRJV+P7, Al Alameen City, El Alamein, Marsa Matrouh Governorate 5060301, Egypt"
غزال,Ghazal,30.9858912,28.5996152,محطه قطار غزاله,"XHPX+9R, Ghazal, Al Dabaa, Marsa Matrouh Governorate 5004650, Egypt"
سيدي شبيب,Sidi Shbeeb,31.0370006,28.2953817,محطة قطار سيدى شبيب,"27PW+R52, قسم, Al Dabaa, Marsa Matrouh Governorate 5002643, Egypt"
الفردية,Fardyah,31.0183325,29.7981673,Amiriya Train Station,"2Q9X+87M, Al Amrereyah Gharb, Amreya 1, Alexandria Governorate 5254501, Egypt"
اطنوح,Atnoh,30.281027,31.2934789,Taha Noub Train Station,"Taha Nob, Shibin el-Qanater, Al-Qalyubia Governorate 6330451, Egypt"
سيدي حنوش,Sidi Hanosh,31.1635555,27.6285705,محطة قطار سيدى حنيش,"5J7H+89H, Mersa Matruh, Marsa Matrouh Governorate 5058506, Egypt"
جرولة,Grawlah,31.2413008,27.3941201,محطة قطار جراولة,"69RV+GJ9, Mersa Matruh, Marsa Matrouh Governorate 5058251, Egypt"
الحضرة,Hadrah,31.2041261,29.9297362,El Hadra El Baharia Train Station,"Al Ibrahimeyah Qebli WA Al Hadrah Bahri, Bab Shar', Alexandria Governorate 5422031, Egypt"
الظاهرية,Zahiriyyah,31.228861,29.96541,محطة قطار الظاهرية - Ad Dhahereyya Railway Station,"2 Adel Awad Allah, ADH Dhahereyah WA Izbat as Safih, El Raml 1, Alexandria Governorate 5450015, Egypt"
السوق,Souq,31.2339786,29.9713809,El Sook Train Station,"Al Mahrousah, El Raml 2, Alexandria Governorate 5450310, Egypt"
غبريال,Ghobrial,31.2383257,29.9760592,محطة قطار غبريال,"1 Masgd Al Rahman, Al Mahrousah, El Raml 2, Alexandria Governorate 5447306, Egypt"
الرمل,Raml,31.2013546,29.9010136,El Raml Station,"Al Mesallah Sharq, Al Attarin, Alexandria Governorate 5372045, Egypt"
النقراشي باشا,Nokrashy,31.2484594,29.979767,محطة قطار النقراشى باشا,"6XXH+9WJ، الإسكندرية، السيوف قبلي (تشمل عزبة درباÙ، قسم ثان المنتزة،, Montaza 1, Alexandria Governorate, Egypt"
سيدي بشر,Sidi Bishr,31.2525578,29.9763514,Sidi Bishr Tram Station,"شارع عبد السلام عارف، السيوف بحري، قسم أول المنتزة،, Alexandria Governorate 21613, Egypt"
العصافرة,Asafra,31.2714171,30.0068955,محطة قطار العصافرة El Asafra Train Station,"Branched from Malk Hafni, Al Mandarah Qebli, Montaza 2, Alexandria Governorate 5524418, Egypt"
المندرة,Mandara,31.2784237,30.0136229,El Mandara Station,"Al Mandarah Qebli, Montaza 2, Alexandria Governorate 5524640, Egypt"
المنتزة,Montaza,31.282662,30.020769,El Montazaha Train Station,"Al Mandarah Bahri, Montaza 2, Alexandria Governorate 5525073, Egypt"
الاصلاح,Eslah,30.0653204,31.1887237,Bashtil - Upper Egypt train station,"Bashtil, Al Warak, Giza Governorate 3811001, Egypt"
المعمورة,Mamurah,31.2941268,30.0537222,محطة قطار المعمورة البلد,"73V3+JGR, Al Maamourah, Montaza 2, Alexandria Governorate 5523407, Egypt"
الكلية البحرية,Naval college,31.2949752,30.0766014,Naval college,"73VG+XJX، شارع المنشاوى, Montaza 2, Alexandria Governorate, Egypt"
الطابية,Tabya,31.2798318,30.0825137,El Tabia Train Station,"At Tarh, Kafr El Dawwar, Beheira Governorate 5922373, Egypt"
سماد ابو قير,Abo Qir Fertilizer,31.2714168,30.0960803,Abu Qir Fertilizer Company,"73CW+HC8, Al Taanea Khet Rashid, At Tarh, Montaza 2, Alexandria Governorate 21911, Egypt"
الطرح,Tarh,31.2798318,30.0825137,El Tabia Train Station,"At Tarh, Kafr El Dawwar, Beheira Governorate 5922373, Egypt"
المعدية,Maadeyah,31.2673033,30.1745691,El-Madia Train Station,"758F+WRG, Edku, Beheira Governorate 5954024, Egypt"
الابعدية,Abaadiah,31.228861,29.96541,محطة قطار الظاهرية - Ad Dhahereyya Railway Station,"2 Adel Awad Allah, ADH Dhahereyah WA Izbat as Safih, El Raml 1, Alexandria Governorate 5450015, Egypt"
بحيرة ادكو,Lago Idku,31.2985063,30.303744,Edku Railway Station,"78X3+CF5, Edku, Beheira Governorate 5951126, Egypt"
الدمياطي,Damietty,31.4187479,31.8080119,Damietta Railway Station,"CR95+F6R, الكوبرى المعدنى, Qism Damietta, Dameitta Second, Damietta Governorate 8050302, Egypt"
ادكو,Idku,31.2985063,30.303744,Edku Railway Station,"78X3+CF5, Edku, Beheira Governorate 5951126, Egypt"
مياح,Miah,28.0968517,30.7540305,Minya Railway Station,"ميدان المحطة، المحطة, Minya, Minya Governorate 2451101, Egypt"
منشية الأمل,Manshyt Amel,31.3137168,30.3623294,محطة قطار منشاة/منشية الامل,"8976+2RJ, Edku, Beheira Governorate 5952952, Egypt"
سنهور,Sanhur,31.0691004,30.5511999,Train Station Sanhour lake,"3H92+JFW, Sanhour, Damanhour, Beheira Governorate 5853251, Egypt"
الهوارية,Hwariah,30.9608283,29.6763621,محطة قطار مطار برج العرب - الهوارية,"XM6G+8GX برج العرب الجديدة, Bahig, Second Al Amreya, Alexandria Governorate 5244502, Egypt"
الخزان,Khazan,31.0885504,30.5823937,محطة قطارات الخزان,"3HQJ+CXC, Menyet Bani Mousa, Rahmaniya, Beheira Governorate 5863501, Egypt"
الرحمانية,Rahmaniah,31.1263656,30.6276771,Rahmaniyah Train Station,"Ezbet Kafr Ghoneim, Rahmaniya, Beheira Governorate 5864002, Egypt"
دسوق,Desouk,31.1325289,30.6410124,Desouk Train Station,"4JMR+2C2, Kafr Ibrahim, Desouk, Kafr El-Sheikh Governorate 6830214, Egypt"
المدينة,Madinah,24.4741248,39.6997404,Madinah train station,"3500, 8183, Al Hadra, Madinah 42368, Saudi Arabia"
شباس,Shbas,31.2189328,29.9424796,Sidi Gaber Railway Station,"Abou Quer, Sidi Gabir, Sidi Gaber, Alexandria Governorate 5433011, Egypt"
البكاتوش,Bekatush,31.0673957,30.8009092,محطة قطار البكاتوش,"دسوق - طنطا، البتاتوش، قلين، كفر الشيخ،، 3R92+49C، البتاتوش، مركز قلين، كفر الشيخ 6842010،، البتاتوش، مركز قلين، كفر الشيخ 6840494،, Egypt"
السنطة,Santa,30.7301618,31.1232963,محطه قطار السنطه,"Madinet as Santah, El Santa, Gharbia Governorate 6657010, Egypt"
تفهنا الاشراف,Tafhna Ashraf,30.6739117,31.350814,Tafna Al-Ashraf station,"M9F2+H83, Tafahnah Al Ashraf, Mit Ghamr, Dakahlia Governorate 7523321, Egypt"
قليشان,Qilishan,30.8361625,30.6777163,محطة قطارات قليشان,"RMPH+F38، قرية قليشان، قليشان، مركز إيتاى البارود،, Itay El Barud, Beheira Governorate, Egypt"
صفط العنب,Saft Inab,30.81648689999999,30.6829807,Grapes Saft Train Station,"RM8M+H5X, Saft Al Enab, Kom Hamada, Beheira Governorate 5765707, Egypt"
النقيدي,Naqidi,30.7900945,30.6898098,محطة قطار النقيدي,"An Nakeidi, Kom Hamada, Beheira Governorate 5764671, Egypt"
كوم حمادة,Kom Hamada,30.7602888,30.69762739999999,Kom Hamada Train Station,"Kom Hamada, Beheira Governorate 5764511, Egypt"
كفر بولين,Kafr Bulin,30.7305149,30.7381555,محطه قطار كفر بولين,"PPJQ+672, Kafr Bawlen, Kom Hamada, Beheira Governorate 5764115, Egypt"
واقد,Waqid,30.6953611,30.738818,محطة واقد,"MPWQ+4GW، Unnamed Road, واكد، مركز كوم حمادة،، واكد، مركز كوم حمادة، البحيرة،, Kom Hamada, Egypt"
منشاة ابو رية,Monshaat Abo Rayyah,30.6727858,30.7537101,Monshaat Abu Rayyah,"Monshaat Abu Rayyah, Monshaat Abu Raya, Kom Hamada, Beheira Governorate 5750243, Egypt"
الاتحاد,Ethaad,30.0653204,31.1887237,Bashtil - Upper Egypt train station,"Bashtil, Al Warak, Giza Governorate 3811001, Egypt"
الطيرية البلد,Tairyyah B,30.6294236,30.7799995,محطة قطار الطيرية,"JQHH+QX, At Tabareyah, Kom Hamada, Beheira Governorate 5761501, Egypt"
ابو الخاوي,Abo Khawi,30.7270372,31.6684678,محطة سكك حديد أبوكبير,"PMG9+R98، Abu Kebeer, أبو كبير، مركز أبو كبير، الشرقية،, Abu Kabir, Egypt"
مديرية التحرير,Modiriyat Tahrir,30.5453561,30.8002565,Modiriyat Al-Tahrir Train Station,"GRW2+44W، مديرية التحرير، قرية ام صابر -قرية سن البحرية، Aklam, مركز كوم حمادة، البحيرة،, Badr, Egypt"
البريجات,Birijat,30.496894,30.81401889999999,محطة قطار البريجات,"FRW7+QJ7, Demeshli, Kom Hamada, Beheira Governorate 5761034, Egypt"
كفر داود,Kafr Dawoud,30.4632215,30.8237301,محطة سكك حديد كفرداود,"Sadat City, Menofia Governorate 6014366, Egypt"
الطرانة,Tarranah,30.426647,30.826783,محطة قطار الطرانه,"CRGG+MP3، Unnamed Road, الطرانة، منوف، المنوفية،, Sadat City, Egypt"
الاخماس,Akhmas,30.0626726,31.2458461,Ramsis station,"Ramses, Al Fagalah, Al Azbakeya, Cairo Governorate 4321102, Egypt"
الخطاطبة,Khatatbah,30.3585804,30.81878739999999,محطة قطار الخطاطبة,"9R59+CGM, Matob Rd, الظهير الصحراوى، Sadat City, Beheira Governorate 6014030, Egypt"
بني سلامة,Beni Salamah,30.3195343,30.8344153,محطة قطار بني سلامه,"8R9M+RQ7, Unnamed Road, بني سلامة، إمبابة،،, Bani Salamah, Monsha'et El Kanater, Giza Governorate, Egypt"
وردان,Werdan,30.29122,30.88349149999999,محطه قطار وردان,"الخطاطبة - منشيه رضوان، بني سلامة، إمبابة، الجيزة،, Monsha'et El Kanater, 3605310, Egypt"
ابو غالب,Abo Ghaleb,30.2732276,30.9075408,Abu Ghalib station,"7WF5+72V، محطةقطار ابوغالب،، المنيرة، إمبابة،, Monsha'et El Kanater, Giza Governorate, Egypt"
الجزيرة الوسطانية,Gezira wastanih,30.2311619,30.9534344,محطة الجزيرة الوسطانية,"6XJ3+F98، القطما، إمبابة،, Monsha'et El Kanater, Giza Governorate 3624013, Egypt"
القطا البلد,Qata B,30.96844,30.9593523,Qutour Train Station,"XX95+9PH, Madinet Qotour, Kotoor, Gharbia Governorate 6724732, Egypt"
القطا,Qata,30.2071047,30.9802159,محطة القطا,"6X4J+R3W، القطما، إمبابة،, Monsha'et El Kanater, Giza Governorate, Egypt"
برقاش,Birqash,30.16907639999999,31.02665229999999,محطة قطار (برقاش),"529G+JMJ, Barqash, Monsha'et El Kanater, Giza Governorate 3660911, Egypt"
نكلا,Niklah,30.172264,31.0513236,Nekla railway station,"نكلا, Al Omraneyah, Giza Governorate, Egypt"
ذات الكوم,Zat Kom,30.0092238,31.2079466,El Giza Station,"2655+M5R, Al Omraneyah Ash Sharqeyah, El Omraniya, Giza Governorate 3724110, Egypt"
المناشي,Manashi,28.0968517,30.7540305,Minya Railway Station,"ميدان المحطة، المحطة, Minya, Minya Governorate 2451101, Egypt"
الجلاتمة,Gelatmah,30.1744541,31.1145684,Algelatmh Station,"54F7+QRP, Al Gelatmah, Monsha'et El Kanater, Giza Governorate 3683813, Egypt"
برطس,Bartas,30.1506253,31.1425579,Burtus Railway Station,"مسجد غزال, Kornish Al Nile، صيدة, Ossim, Giza Governorate 3677701, Egypt"
اوسيم,Ossim,30.130608,31.163173,محطة قطار اوسيم,"طريق أرض اللواء، سقيل، مركز أوسيم، الجيزة،, Ossim, Egypt"
الكوم الاحمر,Kom Ahmar,30.1076745,31.1843115,For Fish,"الكوم الاحمر, Ossim, Cairo Governorate, Egypt"
بشتيل البلد,Bashtil B,30.0859996,31.1834728,محطة قطار بشتيل البلد,"35PM+99X, مبروك، بشتيل، الوراق، الجيزه،, بشتيل، مركز أوسيم، الجيزة،, Ossim, Egypt"
جامعة الزقازيق,Zagazig University,30.5825893,31.5020755,محطة قطارات الزقازيق,"برج ساعة المحطه، نفق السكه الحديد، يوسف، قسم ثان الزقازيق، الشرقية، وسط مدينة الزقازيق قريبه من الكورنيش بجوار، شارع فاروق, Al-Sharqia Governorate 44511, Egypt"
الطيرية,Tairyyah,30.6294236,30.7799995,محطة قطار الطيرية,"JQHH+QX, At Tabareyah, Kom Hamada, Beheira Governorate 5761501, Egypt"
برج العرب ج,Burj Arab N,30.8557724,29.54191449999999,Borg Al Arab - Alexandria Railway Station,"Hod Sakrah WA Abu Hamad, New Borg El Arab, Alexandria Governorate 5220601, Egypt"
كفر بني هلال,Kafr Beni Helal,31.0390582,30.503265,Kafr Bani Hilal Train Station,"2GQ3+J8C, Izab Naqarha, Damanhour, Beheira Governorate 5852612, Egypt"
نفرة,Nefrah,30.0626726,31.2458461,Ramsis station,"Ramses, Al Fagalah, Al Azbakeya, Cairo Governorate 4321102, Egypt"
الفتح,Fath,31.1034936,30.6059659,Train station opening,"4J34+92H, Nazaret Al Ansha, Rahmaniya, Beheira Governorate 5863710, Egypt"
جماجمون,Gmagmun,31.1154562,30.6903807,محطة قطار قرية جماجمون,"جماجمون, Desouk, Kafr El-Sheikh Governorate, Egypt"
كفر الجزاير,Kafr Gazayer,31.1095836,30.9393033,Kafr El-Sheikh Train Station,"محطه قطار كفرالشيخ، كفر الشيخ - طنطا، قسم كفر الشيخ،, Kafr El-Sheikh Governorate, Egypt"
عزبة جودة,Ezbet Godah,31.2189328,29.9424796,Sidi Gaber Railway Station,"Abou Quer, Sidi Gabir, Sidi Gaber, Alexandria Governorate 5433011, Egypt"
حوين,Hwin,24.0998701,32.902257,Aswan Railway Station,"كورنيش النيل، أسوان مدينة اسوان ثاني اجمل مدن العالم ذي طابع فريد، 81511, Egypt"
الابراهيمية,Ibrahimiah,31.214698,29.9264725,El Ibrahimeya Tram Station,"6W7G+VHH, Dr Ahmed Al Mahroki, Al Ibrahimeyah Bahri WA Sidi Gaber, Bab Shar', Alexandria Governorate 5424054, Egypt"
شبشير الحصة,Shebshir Hessah,30.8596528,31.0720689,محطة قطار شبشير الحصة,"V35C+VR8، شبشير الحصة, Tanta, Gharbia Governorate 6647792, Egypt"
الرجدية,Ragdiah,30.8306816,31.04739,محطة قطار الرجدية,"R2JW+7XC, AR Ragdeyah, Tanta, Gharbia Governorate 6648620, Egypt"
الحناوي,Henawi,29.8942953,31.2703259,El Hawamdeyya Train Station,"V7VC+P5C، الحوامدية،, El Hawamdeya, Giza Governorate, Egypt"
المنشأة الصغرى,Monshaah Soghra,26.4761159,31.7967943,محطة قطارات المنشاة,"shop 1 - 272 Mohamed Sedik St - Bandar ElMonshah, المنشاة - سوهاج، المنشأة سوهاج،، المنشأة، مركز المنشأة، سوهاج،، المنشأة، مركز المنشأة، سوهاج المنشأة، مركز المنشأة, Sohag, Sohag Governorate 1665295, Egypt"
الحميدية,Hamidiyyah,31.1935097,29.9064885,Alexandria,"Kom Ad Dakah Gharb, Al Attarin, Alexandria Governorate 5370052, Egypt"
رزقة أماي,Rezqet Amay,30.0626726,31.2458461,Ramsis station,"Ramses, Al Fagalah, Al Azbakeya, Cairo Governorate 4321102, Egypt"
دقميرة,Duqmayrah,31.1768839,31.0210753,محطة قطار دقميرة,"52GC+QC4, Al Khademeyah, Kafr el-Sheikh, Kafr El-Sheikh Governorate 6876633, Egypt"
السلام,Salam,31.1966908,31.0390069,محطة السلام,"52WQ+MJC, Al Helaqi, Kafr el-Sheikh, Kafr El-Sheikh Governorate 6876865, Egypt"
الكركات,Karykat,31.1867519,31.118755,محطة قطار الكراكات,"54P9+PG2 بيلا، الكراكات منتصف، شارع المحطه, Kafr Al Hegnah, Bila, Kafr El-Sheikh Governorate 6952201, Egypt"
كوم الحجنة,Kom Hajnah,31.1810567,31.1339641,محطه قطار كوم الحجنه,"54JM+783، كفر الحجنة، مركز بيلا، كفر الشيخ،, Egypt"
ميت الكرما,Mit Korma,31.0434508,31.3305898,محطة قطار ميت الكرماء,"28VJ+96P, Mit Al Koramaa, Talkha, Dakahlia Governorate 7625105, Egypt"
كفر العرب,Kafr Arab,31.022614,31.3073847,Kafr Al-Arab train station,"28F4+2XR, El-Mahala - Talkha Rd, Kafr El-Arab, Talkha, Dakahlia Governorate 7625011, Egypt"
ميت خلف,Mit Khalaf,30.5453011,31.042065,Mit Khalaf,"Mit Khalaf, Shibin el Kom, Menofia Governorate, Egypt"
الراهبين,Rahbayn,30.0626726,31.2458461,Ramsis station,"Ramses, Al Fagalah, Al Azbakeya, Cairo Governorate 4321102, Egypt"
محلة ابو على القنطرة,Mahallat Abo Ali Qantara,30.9745325,31.1959068,Mahalah Abou Ali El-Qantara,"Mahalah Abou Ali El-Qantara, El Mahalla El Kubra, Gharbia Governorate, Egypt"
غزل المحلة,Ghazl Mahalla,30.9689908,31.1687061,محطة قطار المحلة الكبرى,"X599+HFW, Al Mahalah Al Kubra (Part 2), El Mahalla El Kubra 2, Gharbia Governorate 6743104, Egypt"
منشية البكري,Manshyt Bakry,30.9519738,31.1521518,Manshyet El-Bakry Train Station,"شارع جمال عبد الناصر, Al Mahalah Al Kubra (Part 2), El Mahalla El Kubra 2, Gharbia Governorate 6744111, Egypt"
منية شنتا عياش,Minyat Shentena Ayash,30.9305727,31.1335976,محطه قطار عياش,"W4JM+6CH, Mansheyat Shentena Ayash, El Mahalla El Kubra, Gharbia Governorate 6735804, Egypt"
صفط تراب,Saft Turab,30.904126,31.1107083,محطة قطار صفط تراب,"W436+M74, Saft Torab, El Mahalla El Kubra, Gharbia Governorate 6735501, Egypt"
بساتين كفر البطيخ,Basatin Kafr Battikh,31.4189333,31.7620754,محطة بساتين كفر البطيخ,"CQ96+HRG، مدينة كفر البطيخ، كفر سعد،، مدينة كفر البطيخ، كفر البطيخ، دمياط،, Kafr El Battikh, Egypt"
كفر البطيخ,Kafr Battikh,31.4050582,31.7381575,محطة كفر البطيخ,"مدينة كفر البطيخ، شارع المحطة الجديدة, Egypt"
التوفيقية البلد,Tawfiqiah B,30.8161827,30.7480033,محطة قطار التوفيقية,"RP8X+F6C، ميت حبيش البحرية، طنطا، الغربية،، زبيدة، مركز إيتاى البارود، البحيرة،, Itay El Barud, Egypt"
كفر سعد البلد,Kafr Saad B,31.3193105,31.656042,محطه قطار كفر سعد البلد,"8M94+Q6M، كفر سعد البلد، كفر أبو سعد, Mit Abou Ghaleb, Kafr Saad, Damietta Governorate 7951726, Egypt"
السوالم,Swalem,24.0998701,32.902257,Aswan Railway Station,"كورنيش النيل، أسوان مدينة اسوان ثاني اجمل مدن العالم ذي طابع فريد، 81511, Egypt"
الصبرية,Sabreyah,31.224149,31.5780756,محطة الصبرية,"6HFH+M64، طريق طلخا - دمياط، الصبرية، شربين، الدقهلية،, Shirbin, Egypt"
السعادوه,Saadwa,30.7687361,31.8462078,Train Station Saaant,"QR9W+FFW, El-Ghazaly, Faqous, Al-Sharqia Governorate 7335331, Egypt"
كفر الدبوسي,Kafr Dabbusi,31.1887933,31.5002258,محطة كفر الدبوسي,"5GQ2+G39, Sherbeen Mansoura St, Kafr Ad Dabousi, Shirbin, Dakahlia Governorate 7740110, Egypt"
كفر الحطبه,Kafr Hatabah,31.1825118,31.4844172,محطة كفر الحطبة,"5FMM+2Q3, Sherbeen Mansoura St, كفر الحطبة، Shirbin, Dakahlia Governorate 7740102, Egypt"
الحاج خليل,Hag Khaleel,30.7332201,31.8451859,محطة قطار كفر الحاج عمر,"كفر الحاج عمر - مركز فاقوس - الشرقية - مصر، السعرانه - المشايخ, Faqous, Al-Sharqia Governorate 44768, Egypt"
بطره,Batrah,31.1659466,31.4419081,Battra Train Station,"5C8R+9QC, بالقرب من كوبري المشاه بساط بطره طلخا, Batrah, Talkha, Dakahlia Governorate, Egypt"
ديسط,Daysat,31.1498952,31.4336168,محطة قطار ديسط,"4CXM+XC5، طريق طلخا - دمياط، ديسط، طلخا، الدقهلية،, Talkha, Egypt"
الطويلة,Tawilah,30.0653204,31.1887237,Bashtil - Upper Egypt train station,"Bashtil, Al Warak, Giza Governorate 3811001, Egypt"
شرنقاش,Shirinqash,31.0952504,31.4048013,محطة شرنقاش,"3CW3+6MH, Dar as Salam (Shrenqash Previous), Talkha, Dakahlia Governorate 7623284, Egypt"
ميت عنتر,Mit Antar,31.0841945,31.3990103,محطة قطار ميت عنتر,"39MX+MJC, Mit Antar, Talkha, Dakahlia Governorate 7625713, Egypt"
سماد طلخا,Semad Talkha,31.0540958,31.3772871,Talkha Train Station,"393G+JWM, Talkha City, Talkha, Dakahlia Governorate 7625388, Egypt"
جمصة,Gamasa,31.2776877,31.6220239,محطة قطار جمصة,"7JHC+3RC, Ras El-Khalig, Shirbin, Dakahlia Governorate 7745990, Egypt"
ام الزين,Om Zein,30.6454412,31.39374339999999,محطه قطار ام الزين,"J9WV+2CC, Umm AZ Zein, Zagazig, Al-Sharqia Governorate 7105001, Egypt"
النخاس,Naghas,30.6229264,31.4270402,محطة النخاس,"JCFG+5RF, An Nakhas, Zagazig, Al-Sharqia Governorate 7105310, Egypt"
الفردان,Ferdan,30.6837494,32.3318205,محطة قطار الفردان,"M8MJ+FPW، بورسعيد, El Qantara El Sharqiya, Ismailia Governorate 8373175, Egypt"
البلاح,Balah,30.77082699999999,32.3167852,محطة قطار البلاح,"Q8C8+8P مركز القنطره غرب،, Egypt"
ميت حبيش ق,Mit Hebeish Q,30.7505779,31.0315883,محطة قطار ميت حبيش القبلية,"Q22J+6JP، ميت حبيش القبلية، Tanta, Gharbia Governorate 6642378, Egypt"
شبراقاص,Shobraqas,30.7425348,31.0708779,محطة قطار شبرا قاص,"شبرا قاص، السنطة،، P3VC+349، شبرا قاص، السنطه،, Gharbia Governorate 6651590،, Egypt"
عبد الستار,Major Abd Satar,31.2189328,29.9424796,Sidi Gaber Railway Station,"Abou Quer, Sidi Gabir, Sidi Gaber, Alexandria Governorate 5433011, Egypt"
المنشأة الكبرى,Monshaah Kubra,30.7249929,31.1551797,محطة قطار المنشاة الكبرى,"P5F4+X3V، طنطا - ميت غمر، المنشأة الكبرى, El Santa, Gharbia Governorate 6657406, Egypt"
السملاوية,Samlaweyah,30.7242169,31.1798769,محطة قطار السملاوية,"طنطا - ميت غمر, Kafr Ad Daghaydah, Zefta, Gharbia Governorate, Egypt"
نهطاي,Nahtay,30.7236959,31.1929569,Nahtay Train Station,"P5FV+F5G, Nahtay, Zefta, Gharbia Governorate 6673430, Egypt"
كوم النور,Kom Nour,24.4768122,32.9472276,Kom Ombo Railway Station,"كوم امبو، كوم أمبو، مركز كوم أمبو، اسوان, Aswan Governorate, Egypt"
دنديط,Dandit,30.6881539,31.3092898,Dandit,"Dandit, Dandit WA Kafr Mahmoud Nafee, Mit Ghamr, Dakahlia Governorate, Egypt"
كفر الوزير,Kafr Wazir,30.6811661,31.3374435,محطة كفر الوزير,"M8JP+FX8، كفر الوزير، ميت غمر،, Mit Ghamr, Dakahlia Governorate, Egypt"
ميت القرشي,Mit Qershi,30.6678976,31.3604861,Meet Qurashi Train Station,"M996+555, Kafr Barbari Suleiman, Mit Ghamr, Dakahlia Governorate 7523425, Egypt"
ميت ابو العربي,Mit Abo Orabi,30.6583153,31.3747222,محطه قطار ميت ابو عربي,"M95F+8V, Mit Al Qershi, Mit Ghamr, Dakahlia Governorate 7523401, Egypt"
كفر الحلبي,Kafr Halaby,30.6357811,31.407929,محطه قطار الحلبى,"JCP5+857، محطة الحلبي، الزقازيق - ميت غمر، كفر الحلبي، مركز الزقازيق،, Al-Sharqia Governorate 7105201،, Egypt"
كفر الاشراف,Kafr Ashraf,31.1095836,30.9393033,Kafr El-Sheikh Train Station,"محطه قطار كفرالشيخ، كفر الشيخ - طنطا، قسم كفر الشيخ،, Kafr El-Sheikh Governorate, Egypt"
شيبة النكارية,Shibat Nakariyah,30.5942637,31.4692999,محطة قطار شيبة,"HFV9+MPR, An Nakariah, Zagazig, Al-Sharqia Governorate 7105601, Egypt"
كفر الشناوي,Kafr Shennawy,31.1095836,30.9393033,Kafr El-Sheikh Train Station,"محطه قطار كفرالشيخ، كفر الشيخ - طنطا، قسم كفر الشيخ،, Kafr El-Sheikh Governorate, Egypt"
منشية البدراوي,Manshyt Badrawy,31.1997385,31.3175506,محطة سكك حديد منشية البدراوي,"6828+3P8، الخازندار، طلخا, Al Khazendar, Nabaroh, Dakahlia Governorate 7617214, Egypt"
بهوت,Buhut,30.0653204,31.1887237,Bashtil - Upper Egypt train station,"Bashtil, Al Warak, Giza Governorate 3811001, Egypt"
كفر الجرايدة,Kafr Garaydah,31.1754344,31.22707539999999,Biyala Train Station,"56CC+XJ8, El-Thawra, Madinet Biyala, Bila, Kafr El-Sheikh Governorate 6963412, Egypt"
الشبانات,Shabanat,30.5726405,31.5751107,محطة قطارات الشبانات,"Ash Shabanat, Zagazig, Al-Sharqia Governorate 7148101, Egypt"
صفط الحنة,Saft Hinnah,30.5610747,31.6048453,Saft El-Henna Train Station,"HJ63+CWH, Ismailia - El-Zakazik Rd, Ash Shabanat, Zagazig, Al-Sharqia Governorate 7155001, Egypt"
البعالوة ,Baalwh,30.5480366,31.8578792,Ba’alwa train station,"GVX5+656، Unnamed Road, التل الكبير، الإسماعيلية،، التل الكبير، الإسماعيلية،, Tell El Kebir, Egypt"
المحسمة,Mahsmh,30.56206839999999,32.0135118,محطة قطار المحسمة,"H267+RCC، المحسمة، Tell El Kebir, Ismailia Governorate 8328220, Egypt"
محمد البغدادي,mohamed Baghdady,24.8842473,30.5677885,Baghdad Train Station,"VHM9+M4V, Paris, The New Valley Governorate 1016004, Egypt"
ابو جريش,Abo Gresh,30.5536868,32.0795839,محطة قطار ابو جريش,"H33H+FRG، طريق الإسماعيليه الزراعي، الإسماعيلية،, Abu Suwir, Egypt"
الواصفية,Wasfih,30.5800076,32.173758,Allowasfih Train Station in Ismailia,"الواصفية على بعد 100 متر من الوحدة المحلية لمدينة الواصفية, Egypt"
نفيشة,Nafesha,30.5757362,32.2411012,محطة قطار نفيشة,"H6GR+7C، قسم أول، Ismailia Governorate 8335814, Egypt"
معسكر الجلاء,Galaa Camp,30.5844524,32.2541464,محطة قطار معسكر الجلاء,"H7M3+QMJ، Unnamed Road, Ismailia 1, Ismailia Governorate 8335844, Egypt"
سرس الليان,Sirs Layyanah,30.4493801,30.9715686,محطة سرس الليان,"CXXC+QJ9, Madinet SERS Al Layanah, Menouf, Menofia Governorate 6063150, Egypt"
كفر شبرا زنجي,Kafr Shobra Zanji,30.4454506,31.0012095,Kafr Shubra Zanji,"Kafr Shubra Zanji, Kafr Shubra Zengi, El-Bagour, Menofia Governorate, Egypt"
جروان,Jarawan,30.4340667,31.0144291,محطة جروان,"C2M7+JQF، جروان، الباجور، المنوفية،, El-Bagour, Egypt"
الباجور,Bagour,30.4338901,31.0372383,محطة قطار الباجور,"C2MP+HV5, El-Bagour City, El-Bagour, Menofia Governorate 6075564, Egypt"
سبك الضحاك,Subk Dahhak,30.442502,31.0694261,محطة قطار سبك الضحاك,"C3R9+JF2، سبك الضحاك، الباجور،, Menofia Governorate 32111،, Egypt"
ميت الواسطى,Mit Wusta,30.4481349,31.0890016,محطة ميت الواسطي,"C3XQ+7J2، الباجور- بنها، ميت الوسطى، الباجور، المنوفية،, El-Bagour, Egypt"
اسطنها,Istanha,30.4573716,31.1206774,محطة اسطنها,"Astanha, El-Bagour, Menofia Governorate 6078402, Egypt"
كفر بطا,Kafr Bata,30.4711269,31.153158,Kafr Bata Railway Station,"F5C3+F73, Bata, Banha, Al-Qalyubia Governorate 6454047, Egypt"
الكاب,Cap,30.947113,32.310634,محطة قطار الكاب,"W8W5+VMW، شرق التفريعة، بور سعيد 8515120،, Egypt"
الرسوة,Raswaa,24.4050004,32.9273139,Daraw Railway Station,"El-Abaseya, Draw, Aswan Governorate 81631, Egypt"
عامر,Amer,30.0264778,32.5561196,محطة قطار قرية عامر,"2HG4+HCX, Fifth Shyakha, Al Ganayen, Suez Governorate 8170701, Egypt"
الجناين,Ganayen,30.0618057,32.5522853,Ganayen train station,"3H62+PWC, Hurgada - Al Ismaileya, Fifth Shyakha, Al Ganayen, Suez Governorate 8174433, Egypt"
شلوفة,Shaloofh,30.1164716,32.5632979,محطه قطار الشلوفة,"4H87+H8M، جنيفة, Fifth Shyakha, Al Ganayen, Suez Governorate 8176804, Egypt"
كيلو 64,64 km,30.0626726,31.2458461,Ramsis station,"Ramses, Al Fagalah, Al Azbakeya, Cairo Governorate 4321102, Egypt"
ابو حلب,Abo halab,36.2152768,37.1480238,Aleppo Railway Station,"Aleppo, Syria"
كسفريت,kasfareet,30.2519675,32.402195,محطة قطار كسفريت,"7C22+QVP، كبريت، فيصل،, Fayid, Suez Governorate, Egypt"
فنارة,Fanara,30.2764878,32.3485461,محطة قطار فنارة,"78GX+HCV, Fayid, Ismailia Governorate 8340371, Egypt"
قمة فايد,Kemt Fayed,30.3024502,32.319646,محطه قطار قمه فايد,"8829+XVJ, Gamal Abd El-Nasir, Fayid, Ismailia Governorate 8343016, Egypt"
فايد ج,Fayed N,30.3315219,32.2937707,محطة قطار,"87JV+JG2, Fayid, Ismailia Governorate 8343321, Egypt"
السعيدية,Saidia,30.0653204,31.1887237,Bashtil - Upper Egypt train station,"Bashtil, Al Warak, Giza Governorate 3811001, Egypt"
10 رمضان,10th of Ramadan,30.29512799999999,31.743813,10th of Ramadan City,"10th of Ramadan City 1, Al-Sharqia Governorate 7063111, Egypt"
عين غصين,Ain Ghoseen,30.510275,32.2972625,محطة قطار عين غصين,"G76X+429, Al Sweis Ismaelia Al Zerai, Ismailia, Ismailia Governorate 8352222, Egypt"
الضبعية,Ad Dabiyyah,31.0277678,28.4439331,محطة قطار الضبعة,"2CHV+4H3، Unnamed Road, قسم الضبعة، مطروح،, Ghazal, Egypt"
العجرود ج,Agrod N,30.0583893,32.4174263,Agrod Train Station,"3C58+9X3, Attaka, Suez Governorate 8138021, Egypt"
جبل عوبيد,Jabal Obaid,30.1056672,32.1462193,Jabal Obaid,"Jabal Obaid, Attaka, Suez Governorate 8138010, Egypt"
جبل الجفرة,Jabal Jufra,30.1939153,31.3578239,Mansheyet El-Jabal El-Asfar Train Station,"59V5+H48, Branshed from Al Maheta, Saryaqos, Al Khankah, Al-Qalyubia Governorate 6345048, Egypt"
وادي السيل,Wadi Sail,21.8034691,31.3392413,Wadi Halfa Railway Station,"Wadi Halfa, Sudan"
الربيكي,Robaikey,30.1690622,31.7715434,Rabaky Train Station,"Badr, Cairo Governorate 4954218, Egypt"
بدر,Badr,30.1748915,31.7161444,محطة بدر التبادلية القطار الكهربائي الخفيف LRT,"5PG8+395، الظهير الصحراوى لمحافظة القاهرة،, Cairo Governorate 4954540،, Egypt"
الشروق,Shorouk,30.1797494,31.60548559999999,محطة الشروق القطار الكهربائي,"5JH4+V5X, El Shorouk, Cairo Governorate 4924630, Egypt"
درب الحاج,Darb Haj,30.1713115,31.5418335,Darb al Hagg railway station,"5GCR+GQQ, El Shorouk, Cairo Governorate 4914066, Egypt"
العبور,Obour,30.162973,31.481647,El Obour,"El Shorouk, Cairo Governorate 4910901, Egypt"
عدلي منصور,Adly Mansour,30.146458,31.42132,Adly Mansour,"Huckstep, El Nozha, Cairo Governorate 4473430, Egypt"
الدنابيق,Danabiq,31.051324,31.4431374,محطة الدنابيق,"3C2V+G76، Unnamed Road, الدنابيق، المنصورة، الدقهلية،، الدنابيق، المنصورة، الدقهلية،, El Mansoura, 7680202, Egypt"
سلامون,Salamoun,31.0668345,31.4604037,محطة قطار سلامون,"3F86+P5J, Salamoun, El Mansoura, Dakahlia Governorate 7680602, Egypt"
شها,Shuha,31.0453964,31.3882888,Mansoura Train Station,"Gameat Al Dewal Al Arabiya St, Mansoura Qism 2, El Mansoura, Dakahlia Governorate 7660015, Egypt"
محلة دمنة,Mahallat Damanah,31.0631048,31.5084511,Maḥallat Damanah,"Maḥallat Damanah, Dakahlia Governorate, Egypt"
ميت ضافر,Mit Dafer,31.0788292,31.5456926,Mitt Dafer train station,"3GHW+G7P, Mit Dafer, Dekernes, Dakahlia Governorate 7820351, Egypt"
الخشاشنة,Khashashnah,31.0758044,31.5678708,محطة قطار الخشاشنة والمرساه,"3HG9+84H، المرساة، مركز دكرنس،, Dekernes, Dakahlia Governorate, Egypt"
دكرنس,Dikirnis,31.0784608,31.5991507,محطة قطار دكرنس,"3HHX+9MJ, Madinet Dikirnis, Dekernes, Dakahlia Governorate 7820815, Egypt"
ميت شرف,Mit Sharaf,31.0809119,31.6229801,محطة قطار ميت شرف,"3JJF+959, Mit Sharaf, Dekernes, Dakahlia Governorate 7821410, Egypt"
اشمون الرمان,Ashmoun Romman,30.29872199999999,30.979408,محطة قطارات أشمون,"Abdel Moneim Riad St, Madinet Ashmoun, Ashmoun, Menofia Governorate 6022737, Egypt"
ميت الخولي,Mit Khouly,31.1634548,31.80564519999999,Mit Salsil train station,"5R74+97J، شارع الترب, Al Gawabir, El Manzala, Dakahlia Governorate 7851151, Egypt"
ميت حديد,Mit Hadid,31.1175855,31.6725115,Mit Hadid,"Mit Hadid, Menyet El Nasr, Dakahlia Governorate, Egypt"
ميت عاصم,Mit Asem,31.121367,31.6949233,محطه قطار منشأه عاصم,"4MCV+GXV, Mit Asem, Menyet El Nasr, Dakahlia Governorate 7834004, Egypt"
كفر علام,Kafr Allam,31.1388763,31.7203496,Kafr Alam train station,"4PQC+H45, برمبال الجديده, Kafr Allam, Menyet El Nasr, Dakahlia Governorate 7834112, Egypt"
الرياض,Riyad,24.8559924,46.7628022,Riyadh,"شارع الثمامة, King Khalid International Airport, Riyadh 13422, Saudi Arabia"
الكردي,kurdi,31.16379909999999,31.7733729,محطة قطار الكردي,"Al Gamaleya - Matareya Rd, El-Kordy, Menyet El Nasr, Dakahlia Governorate 7841120, Egypt"
ميت سلسيل,Mit Salsil,31.1634548,31.80564519999999,Mit Salsil train station,"5R74+97J، شارع الترب, Al Gawabir, El Manzala, Dakahlia Governorate 7851151, Egypt"
ميت مرجا سلسيل,Mit Marga Selsil,31.1634548,31.80564519999999,Mit Salsil train station,"5R74+97J، شارع الترب, Al Gawabir, El Manzala, Dakahlia Governorate 7851151, Egypt"
الجمالية,Jamaliyah,31.1728926,31.8693329,Aesthetic Train Station,"5VF9+5P4, Mit Sherif, El Manzala, Dakahlia Governorate 7871804, Egypt"
ميت خضير,Mit Khodeir,31.1558277,31.89610849999999,محطة ميت خضير,"5V4W+8CQ, Mit Khodeir, El Manzala, Dakahlia Governorate 7874531, Egypt"
المنزلة,Manzalah,31.14895809999999,31.932905,محطة قطار المنزله,"4WXM+H5J, Al Manzalah, El Manzala, Dakahlia Governorate 7874702, Egypt"
دار السلام,Dar Salam,29.982066,31.2421753,Dar El Salam,"Al Isaweyah, Dar El Salam, Cairo Governorate 4223620, Egypt"
عصافرة المنزلة,Asafrah Manzalah,31.228861,29.96541,محطة قطار الظاهرية - Ad Dhahereyya Railway Station,"2 Adel Awad Allah, ADH Dhahereyah WA Izbat as Safih, El Raml 1, Alexandria Governorate 5450015, Egypt"
المطرية,Matariyah,30.1213363,31.31372229999999,El Matarya,"Helmeyat AZ Zaytoun, Ain Shams, Cairo Governorate, Egypt"
مصنع الغزل,Textile factory,30.9691788,31.1834408,محطه قطار الغزل,"شارع شركة الزيت والصابون، المحلة الكبرى (قسم 2)، المحلة الكبرى، الغربية،, Egypt"
بني أحمد,Beni Ahmed,28.4950757,30.8065249,محطة قطار بنى مزار,"Madinet Bani Mazar, Beni Mazar, Minya Governorate 2536201, Egypt"
منسافيس,Mansafis,28.0053168,30.8152471,محطة منسافيس,"2R48+43H مركز ابو قرقاص، Unnamed Road, Mansafis، منسفيس، أبو قرقاص،, Minya Governorate 2366430, Egypt"
ابيوها,Abyuha,27.9689405,30.8320942,محطة أبيوها,"XR9J+HRH، ابيوها, Abyouha, Abu Qirqas, Minya Governorate 2366301, Egypt"
اتليدم,Itlidim,27.8754569,30.8037186,محطة قطارات اتليدم,"Bani Sweif - Dayrout, Atlidam, Abu Qirqas, Minya Governorate 2365020, Egypt"
المحرص,Mahras,27.8294359,30.8003724,محطة المحرص,"RRH2+Q4H، ابيوها - المحرص، قلندول، ملوي، المنيا،, Mallawi, Egypt"
معصرة ملوي,Massarat Malawi,27.7034993,30.8674779,محطة قطار معصرة ملوى,"PV38+9XX، شارع بورسعيد, Al Maasarah Bahri, Mallawi, Minya Governorate 2350140, Egypt"
تل العمارنة,Amarna,27.6445082,30.8986239,Tell el Amarna,"JVVX+RC5، تل بني عمران, Tall Bani Omran, Al Minya Desert, Minya Governorate 2370321, Egypt"
الجرف,Jarf,33.1461347,-8.605445999999999,Gare Ferroviaire Jorf Lasfar,"S121, Morocco"
صنبو,Sanabo,27.499545,30.8114506,محطة صنبو,"FRX6+RH8، Unnamed Road, Kherafah, Dairut, Assiut Governorate 2155003, Egypt"
فزاره,Fazarah,27.4696834,30.8208192,محطة فزارة,"FR9C+V8G، ديروط - القوصية، صنبو، مركز ديروط، أسيوط،, El Qusiya, Egypt"
بني قره,Beni Qorah,27.3873598,30.8936106,محطة قطار بنى قرة,"9VPV+WCP, جسر أبو منديل، بني قرة، مركز القوصية،،, Bani Qorah, Manfalut, Assiut Governorate, Egypt"
بني شقير,Beni Shakeir,27.3498392,30.9675551,Bani Shakeir,"Bani Shakeir, Manfalut, Assiut Governorate, Egypt"
الحواتكة,Hawatkah,27.2686786,31.0135396,محطة قطار الحواتكة,"7297+FC6، كوبري الحواتكه, Manfalout, Manfalut, Assiut Governorate 2125033, Egypt"
نجع سبع,Nagaa Sabee,27.2452489,31.070773,Nagaa Sabee,"Nagaa Sabee, Asyut, Assiut Governorate, Egypt"
بني حسين,Beni Hussein,28.4950757,30.8065249,محطة قطار بنى مزار,"Madinet Bani Mazar, Beni Mazar, Minya Governorate 2536201, Egypt"
قمن العروس,Qamn Arous,29.2747723,31.1653117,Qamn Al Arous,"Qamn Al Arous, El Wasta, Beni Suef Governorate, Egypt"
شريف باشا,Shreef Basha,30.0653204,31.1887237,Bashtil - Upper Egypt train station,"Bashtil, Al Warak, Giza Governorate 3811001, Egypt"
الفنت,Fant,30.0653204,31.1887237,Bashtil - Upper Egypt train station,"Bashtil, Al Warak, Giza Governorate 3811001, Egypt"
ملاطية,Malatya,38.352225,38.2833501,Malatya,"İnönü, 44070 Yeşilyurt/Malatya, Türkiye"
قلوصنا,Qulusna,28.3109027,30.7139744,محطة قطارات سمالوط,"سمالوط، مدينة سمالوط، سمالوط، المنيا،, Egypt"
تزمنت,Tezment,29.0543567,31.0605158,Tizmant Ash Sharqiyyah,"Tizmant Ash Sharqiyyah, Ad Daweyah, Beni Suef, Beni Suef Governorate, Egypt"
اولاد الياس,Awlad Ilyas,24.0998701,32.902257,Aswan Railway Station,"كورنيش النيل، أسوان مدينة اسوان ثاني اجمل مدن العالم ذي طابع فريد، 81511, Egypt"
شطب,Shatb,27.1462969,31.236794,محطة قطار شطب,"46WP+GP7, Awlad Ibrahim, Asyut, Assiut Governorate 2063282, Egypt"
المطيعة,Mutiah,30.0653204,31.1887237,Bashtil - Upper Egypt train station,"Bashtil, Al Warak, Giza Governorate 3811001, Egypt"
باقور,Baqur,27.0953802,31.2998534,محطة باقور,"37WX+5W5، Unnamed Road, Nazlet Baqour, Abu Tig, Assiut Governorate 2053370, Egypt"
النخيلة,Nekhaylah,27.0130098,31.3358312,محطة قطار النخيلة,"287P+684، Unnamed Road، النخيلة, Abu Tig, Assiut Governorate 2051421, Egypt"
مشطا,Mishta,26.861411,31.4640044,محطة مشطا,"VF67+HH9, Kom El-Arab, Tima, Sohag Governorate 1765401, Egypt"
شطورة,Shatourah,26.7681664,31.5055968,Tahta Railway Station,"QG94+77C، عرب بخواج، مركز طهطا،, Tahta, Sohag Governorate, Egypt"
بنجا,Banja,30.4558513,31.1806955,Benha railway station,"Qism Banha, Banha, Al-Qalyubia Governorate 6460301, Egypt"
الصوامعة,Sawamaah,26.5512725,31.69893759999999,Sohag Railways Station,"HM2X+GHH, شارع والورشة, El-Khouly, Sohag 1, Egypt"
السايح,Sayh,30.0653204,31.1887237,Bashtil - Upper Egypt train station,"Bashtil, Al Warak, Giza Governorate 3811001, Egypt"
شندويل البلد,Shandawil B,26.6203496,31.6407275,Train Station,"Gazirat Shandaweil, Sohag, Sohag Governorate 1694453, Egypt"
جزيرة شندويل,Jazirat Shandawil,26.6203496,31.6407275,Train Station,"Gazirat Shandaweil, Sohag, Sohag Governorate 1694453, Egypt"
بلصفورة,Balasfurah,26.5215388,31.7413591,محطة قطار بلصفوره,"GPCR+JG9, Rawafee Al Qoseir, Sohag, Sohag Governorate 1695147, Egypt"
العيساوية,Isawiyyah,26.5135696,31.7737994,محطه قطارات العيساويه,"GQ7F+CGF، روافع العيساوية، مركز المنشأة،, Sohag, Sohag Governorate, Egypt"
الأحايوه,Ahaywah,26.4333336,31.8057639,محطة الأحايوة,"CRM4+88J، طريق بيت نوار، الأحايوة غرب، مركز المنشأة، سوهاج،, Aserat, Egypt"
البندار,Bindar,30.4558513,31.1806955,Benha railway station,"Qism Banha, Banha, Al-Qalyubia Governorate 6460301, Egypt"
مزاتا غرب,Mzata west,26.3374136,31.8888655,Gerga Station,"8VPQ+XG9, Gerga, Sohag Governorate 1632201, Egypt"
الساحل ق,Sahel Q,30.9693229,28.7227197,Train Station Sidi Abdel Rahman,"XP9F+P3H, El Alamein, Marsa Matrouh Governorate 5062150, Egypt"
بني حميل,Beni Hamil,26.2347296,31.9971666,محطة البلينا,"6XMW+VVV، شارع المحطة, Al Balena, El Balyana, Sohag Governorate 1616022, Egypt"
سمهود,Samhud,26.9644391,31.3761287,Sidfa Train Station,"X97G+QFC, Sodfa, Assiut Governorate 2032402, Egypt"
رفاعة,Rufaa,26.0915735,32.1262323,محطة قطار رفاعة,"34RG+JFQ, Refaah, Abu Tesht, Qena Governorate 1584010, Egypt"
بهجورة,Bahjurah,26.3374136,31.8888655,Gerga Station,"8VPQ+XG9, Gerga, Sohag Governorate 1632201, Egypt"
خزام,Khozam,25.7801778,32.762473,محطه قطار خزام,"QQJ6+3XH، خزام، بجوار السكة الحديد، خزام، قوص، قنا،, Qus, Egypt"
العيايشة,Ayshah,25.8225717,32.780298,Al Ayayshah Railway Station,"RQFJ+24F، Unnamed Road, Al Ayayshah, Qus, Qena Governorate 1430038, Egypt"
الشنهورية,Shanhoria,31.228861,29.96541,محطة قطار الظاهرية - Ad Dhahereyya Railway Station,"2 Adel Awad Allah, ADH Dhahereyah WA Izbat as Safih, El Raml 1, Alexandria Governorate 5450015, Egypt"
الشيخ عامر,Sheikh Amer,31.0183325,29.7981673,Amiriya Train Station,"2Q9X+87M, Al Amrereyah Gharb, Amreya 1, Alexandria Governorate 5254501, Egypt"
الكراتية,Karateyah,31.1867519,31.118755,محطة قطار الكراكات,"54P9+PG2 بيلا، الكراكات منتصف، شارع المحطه, Kafr Al Hegnah, Bila, Kafr El-Sheikh Governorate 6952201, Egypt"
البراهمة,Barahmah,31.1659466,31.4419081,Battra Train Station,"5C8R+9QC, بالقرب من كوبري المشاه بساط بطره طلخا, Batrah, Talkha, Dakahlia Governorate, Egypt"
ابنود,Abnoud,26.0539657,32.7966903,محطة سكك حديد ابنود,"3Q3W+HM, Abnoud, Qena, Qena Governorate 1452374, Egypt"
الاشراف,Ashraf,31.2042033,30.5765283,Train Station,"6H3G+MJJ, FEWA - Mtobes Rd, Mit Al Ashraf, Fuwa, Kafr El-Sheikh Governorate 6811445, Egypt"
الاشراف ق,Ashraf Qibliyyah,31.2042033,30.5765283,Train Station,"6H3G+MJJ, FEWA - Mtobes Rd, Mit Al Ashraf, Fuwa, Kafr El-Sheikh Governorate 6811445, Egypt"
الجزيرية,Jiziriyyah,30.0092238,31.2079466,El Giza Station,"2655+M5R, Al Omraneyah Ash Sharqeyah, El Omraniya, Giza Governorate 3724110, Egypt"
المخادمة,Makhadmah,26.1838858,32.6368762,Al Makhadma Railway Station,"5JMP+HQ2, Al Makhadmah, Qena, Qena Governorate 1456204, Egypt"
القناوية,Qinawiyyah,26.1622143,32.7272833,Qena Railway Station,"Al Mahatta, قسم قنا، Qena, Qena Governorate 1461122, Egypt"
اولاد عمرو,Awlad Amr,26.1610997,32.5994817,محطة اولاد عمرو,"5H6X+CQQ, Awlad Amr, Qena, Qena Governorate 1457631, Egypt"
السمطا,Samta Q,31.2937154,27.3326693,Mahto train Simla,"Mersa Matruh, Marsa Matrouh Governorate 5056822, Egypt"
المراشدة,Marashdah,30.0626726,31.2458461,Ramsis station,"Ramses, Al Fagalah, Al Azbakeya, Cairo Governorate 4321102, Egypt"
فاو,Faw,26.10003,32.4108837,محطة فاو,"4C26+296، Unnamed Road، فاوغرب, Dishna, Qena Governorate 1530411, Egypt"
الياسينية,Baseineyah,31.0183325,29.7981673,Amiriya Train Station,"2Q9X+87M, Al Amrereyah Gharb, Amreya 1, Alexandria Governorate 5254501, Egypt"
الرحمانية ق,Rahmaneyah Q,31.1263656,30.6276771,Rahmaniyah Train Station,"Ezbet Kafr Ghoneim, Rahmaniya, Beheira Governorate 5864002, Egypt"
السلمية ق,Salmiyyah Q,30.7375619,30.9754955,Kafr El Sheikh Selim Train Station,"PXQG+25H, Kafr El-Shaikh Selim, Tanta, Gharbia Governorate 6641357, Egypt"
الكرنك,Karnak,25.6965585,32.644726,Luxor Railway Station,"Luxor City, Luxor, Luxor Governorate 1362367, Egypt"
الزينية,Zayniyyah,31.2189328,29.9424796,Sidi Gaber Railway Station,"Abou Quer, Sidi Gabir, Sidi Gaber, Alexandria Governorate 5433011, Egypt"
الرضوانية,Radwania,24.0998701,32.902257,Aswan Railway Station,"كورنيش النيل، أسوان مدينة اسوان ثاني اجمل مدن العالم ذي طابع فريد، 81511, Egypt"
الوحدة,Wehdaa,25.6124223,32.5735157,El Wehda Railway Station,"JH6F+XC6, Cairo - Aswan Eastern Desert Rd, Al Toud City, Luxor, Luxor Governorate 1353025, Egypt"
الطود,Toud,25.6124223,32.5735157,El Wehda Railway Station,"JH6F+XC6, Cairo - Aswan Eastern Desert Rd, Al Toud City, Luxor, Luxor Governorate 1353025, Egypt"
نجع الجسور,Nagaa Gossor,26.1622143,32.7272833,Qena Railway Station,"Al Mahatta, قسم قنا، Qena, Qena Governorate 1461122, Egypt"
العديسات,Idisat,25.5576597,32.4924657,Al Adisat Railway Station,"HF5R+3X8, Qena - Edfo, Al Odeisat, Luxor, Luxor Governorate 1352104, Egypt"
الشغب,Shaghab,25.5169909,32.5004054,Al-Shaghab Railway Station,"GG83+89، GG82+Q4 إسنا،, Esna, Egypt"
المعلة,Maelah,30.0653204,31.1887237,Bashtil - Upper Egypt train station,"Bashtil, Al Warak, Giza Governorate 3811001, Egypt"
نجع ابو سعيد,Nagaa Abo Said,25.4436661,32.5453391,Nagaa Al Masaid Railway Station,"CGVW+F4 إسنا،, Egypt"
المطاعنة,Mataenah,25.3099697,32.5706004,Esna Railway Station,"8H5C+X6Q، الدير، إسنا،, Esna, Luxor Governorate, Egypt"
الدير,Deir,25.3323148,32.5765366,Al Deir Railway Station,"8HJG+WJ إسنا،, Egypt"
الكلابية,Kelabeyah,30.0653204,31.1887237,Bashtil - Upper Egypt train station,"Bashtil, Al Warak, Giza Governorate 3811001, Egypt"
جزيرة راجح,Gazirat Rageh,30.0626726,31.2458461,Ramsis station,"Ramses, Al Fagalah, Al Azbakeya, Cairo Governorate 4321102, Egypt"
الخوي ج,Khoy N,25.3908475,30.5551615,Extra train station,"Qesm Al Wahat Ad Dakhlah, The New Valley Governorate 1061471, Egypt"
الفوسفات ج,Phosphate N,25.1157642,32.81109440000001,Fosfat Nagas Helal Railway Station,"4R86+8C5, Cairo - Aswan Eastern Desert Rd, Al Hagz Qebli, Edfo, Aswan Governorate 1296803, Egypt"
الكلح,Kilh,30.1761076,31.3481858,Qalag train station,"Al Qalg, Al Khankah, Al-Qalyubia Governorate 6345306, Egypt"
الدومارية,Dawamaria,24.4050004,32.9273139,Daraw Railway Station,"El-Abaseya, Draw, Aswan Governorate 81631, Egypt"
العطواني,Atwani,24.0998701,32.902257,Aswan Railway Station,"كورنيش النيل، أسوان مدينة اسوان ثاني اجمل مدن العالم ذي طابع فريد، 81511, Egypt"
البغدادي,Boghdady,25.6367881,32.6033929,Elboghdady railway station محطة قطار البغدادي,"JJP3+P96, El-Boghdady, Luxor, Luxor Governorate 1356005, Egypt"
الفوزة,Fuzah,30.7275545,31.79431829999999,محطة قطار فاقوس,"محطة قطار فاقوس، مدينة فاقوس ، مركز فاقوس ، الشرقية ، مصر، البيروم، مركز فاقوس، الشرقية 44641،، 44641, Egypt"
الطوناب,Tunab,24.8671684,32.8918718,At Tunab Railway Station,"VV8R+VP9, At Tonab, Edfo, Aswan Governorate 1294252, Egypt"
السراج,Siraj,24.8558979,32.8914427,محطة قطار السراج,"VV4R+9H4, At Tonab, Edfo, Aswan Governorate 1294244, Egypt"
جعفر الصادق,Gaafar Sadik,31.2189328,29.9424796,Sidi Gaber Railway Station,"Abou Quer, Sidi Gabir, Sidi Gaber, Alexandria Governorate 5433011, Egypt"
السيد سعيد,sayid Said,31.2602936,32.3009429,Port Said Railway Station,"7862+498، ميدان 15 مايو، حى الشرق، بور سعيد, Port Said Governorate 8571030, Egypt"
جبل السلسلة,Gebel Silsila,24.650135,32.9300537,Gebel el Silsila,"MW2J+323, Al Kagoug, Markaz Kom Ombo, Aswan Governorate 1280482, Egypt"
الرغامة,Raghama,31.228861,29.96541,محطة قطار الظاهرية - Ad Dhahereyya Railway Station,"2 Adel Awad Allah, ADH Dhahereyah WA Izbat as Safih, El Raml 1, Alexandria Governorate 5450015, Egypt"
الشطب البلد,Shatb B,30.0653204,31.1887237,Bashtil - Upper Egypt train station,"Bashtil, Al Warak, Giza Governorate 3811001, Egypt"
السلام النوبية,Salam Aneibah,24.0998701,32.902257,Aswan Railway Station,"كورنيش النيل، أسوان مدينة اسوان ثاني اجمل مدن العالم ذي طابع فريد، 81511, Egypt"
الرتاج,Retaj,30.0626726,31.2458461,Ramsis station,"Ramses, Al Fagalah, Al Azbakeya, Cairo Governorate 4321102, Egypt"
الجعافرة,Jaafrah,26.3374136,31.8888655,Gerga Station,"8VPQ+XG9, Gerga, Sohag Governorate 1632201, Egypt"
الاعقاب,Aaqab,24.0998701,32.902257,Aswan Railway Station,"كورنيش النيل، أسوان مدينة اسوان ثاني اجمل مدن العالم ذي طابع فريد، 81511, Egypt"
الاعقاب ق,Aaqab Q,30.1761076,31.3481858,Qalag train station,"Al Qalg, Al Khankah, Al-Qalyubia Governorate 6345306, Egypt"
الخطارة,Khttarah,30.0653204,31.1887237,Bashtil - Upper Egypt train station,"Bashtil, Al Warak, Giza Governorate 3811001, Egypt"
الشديدة,Shadedh,31.228861,29.96541,محطة قطار الظاهرية - Ad Dhahereyya Railway Station,"2 Adel Awad Allah, ADH Dhahereyah WA Izbat as Safih, El Raml 1, Alexandria Governorate 5450015, Egypt"
ابو الريش ق,Abo Resh Q,24.1436865,32.8931643,محطة سكه حديد ابو الريش,"4VVV+F7F، Unnamed Road, قسم أسوان،, Aswan، البحر الأحمر, Egypt"
بشتيل المحطة,Bashtil,30.0653204,31.1887237,Bashtil - Upper Egypt train station,"Bashtil, Al Warak, Giza Governorate 3811001, Egypt"
